{
"type": "FeatureCollection",
"name": "state_major_islands",
"crs": { "type": "name", "properties": { "name": "urn:ogc:def:crs:OGC:1.3:CRS84" } },
"features": [
{ "type": "Feature", "properties": { "id": "1", "state_code": "1", "state": "New South Wales" }, "geometry": { "type": "Polygon", "coordinates": [ [ [ 149.977405169058073, -37.243128217516087 ], [ 149.942941179275238, -37.282511224719585 ], [ 149.976197552811584, -37.505146559097 ], [ 148.104431956426453, -36.789738245672439 ], [ 148.217449151914536, -36.598840363621008 ], [ 148.124453213006859, -36.550967635744911 ], [ 148.124721583689819, -36.464827215204714 ], [ 148.038216398356354, -36.378617827636631 ], [ 147.984217928258005, -36.042929871075678 ], [ 147.70841984601384, -35.928531578254585 ], [ 147.555251071468177, -36.003196506624462 ], [ 147.494117548321782, -35.943535861419747 ], [ 147.405024112520209, -35.943507104434218 ], [ 147.319156492336816, -36.061115868505347 ], [ 147.112005162582193, -36.000816732063463 ], [ 147.035069101613004, -36.11496329689659 ], [ 146.421581597225583, -35.965965329613553 ], [ 146.366902066572578, -36.050085626110551 ], [ 145.94607957416514, -35.961320834746239 ], [ 145.795860185930366, -35.983647254077937 ], [ 145.557999102062126, -35.817407706059385 ], [ 145.360174909134884, -35.86181076244246 ], [ 145.113928753063902, -35.820575225087019 ], [ 144.968184871855783, -35.865829115385566 ], [ 144.923621936368477, -35.988938043145446 ], [ 144.982411528283933, -36.071544777691692 ], [ 144.863466278904241, -36.059098249509745 ], [ 144.80579290163567, -36.123829286020616 ], [ 144.683913484437767, -36.095124607622935 ], [ 144.408544698956376, -35.898877678026174 ], [ 144.327529946562549, -35.752590141745934 ], [ 144.267925346053062, -35.753766117847867 ], [ 144.104924298191946, -35.590711106183363 ], [ 143.764650741533501, -35.392799953111258 ], [ 143.642345140264979, -35.401024105452272 ], [ 143.565883937898803, -35.34271120028248 ], [ 143.563933301224324, -35.202613689246668 ], [ 143.396386328647452, -35.193100538775361 ], [ 143.319744353046161, -34.948391572451946 ], [ 143.351553281868007, -34.795991003407288 ], [ 143.161695980268377, -34.697902621146035 ], [ 142.967701441026293, -34.691657529391129 ], [ 142.924719601408327, -34.649578696540104 ], [ 142.891000764010727, -34.67981656472498 ], [ 142.803449033961158, -34.607113069039329 ], [ 142.810096356952897, -34.560706759127996 ], [ 142.703416670335372, -34.5974971030655 ], [ 142.679527131856219, -34.739072122589683 ], [ 142.617862052341536, -34.729204498907812 ], [ 142.615786877850638, -34.785247259153451 ], [ 142.517050945914207, -34.754809393196034 ], [ 142.453825846373292, -34.630230128714047 ], [ 142.472800758073959, -34.575265179451549 ], [ 142.368414878349569, -34.527075103111756 ], [ 142.351848421049112, -34.406061811364083 ], [ 142.396804859798721, -34.338082403500955 ], [ 142.321616461480261, -34.336922809174858 ], [ 142.165867910653191, -34.152252949085671 ], [ 142.085012161284538, -34.173739804663093 ], [ 142.074490916417545, -34.130478123785323 ], [ 141.710421144728798, -34.098272983374088 ], [ 141.533038833058782, -34.211435494477449 ], [ 141.494646783405415, -34.154499762033772 ], [ 141.207202524681549, -34.061175216122351 ], [ 141.019453213752627, -34.05729724629159 ], [ 140.999272283093688, -28.999086880404981 ], [ 148.958088233856699, -28.999051081236352 ], [ 149.03115680976299, -28.957157087084372 ], [ 149.080039316414172, -28.843460090356185 ], [ 149.385183797337532, -28.691374115237078 ], [ 149.5030397965551, -28.574519124500132 ], [ 149.704705766554355, -28.633537642463224 ], [ 150.292910709382227, -28.537657193731668 ], [ 150.414386182175804, -28.651984705523844 ], [ 150.632900654024269, -28.676774725493335 ], [ 150.768352642789694, -28.639232737560427 ], [ 151.02617809930257, -28.755154762174197 ], [ 151.04636758621578, -28.845244764735778 ], [ 151.274748048462641, -28.938562286705498 ], [ 151.279082028518332, -29.09913678834252 ], [ 151.311893017139425, -29.161152291888556 ], [ 151.395431505358232, -29.177317299851005 ], [ 151.543871515231899, -28.954544812138739 ], [ 151.72642200482403, -28.866942328796352 ], [ 151.770635988763644, -28.955752333697557 ], [ 151.825743481359098, -28.963961339028337 ], [ 151.839846346044823, -28.912880949985194 ], [ 152.023510467562716, -28.890831357468077 ], [ 152.076040984243548, -28.708331861132525 ], [ 152.011601997383593, -28.661834354551264 ], [ 151.958192021504686, -28.515931848277205 ], [ 152.217240500447048, -28.449100872813528 ], [ 152.309373000813622, -28.362826881117453 ], [ 152.385204991544953, -28.368782388575575 ], [ 152.487641394506937, -28.253481767725329 ], [ 152.579511473455398, -28.339185407439896 ], [ 152.614247978356673, -28.269463910325637 ], [ 152.750954951125351, -28.363866924603474 ], [ 152.878098943540152, -28.311726936857578 ], [ 153.108553412103078, -28.356314960314979 ], [ 153.207398144414526, -28.252972579483675 ], [ 153.363506307788469, -28.247636315274523 ], [ 153.485862736034505, -28.157023937041156 ], [ 153.552177137762982, -28.164395983884955 ], [ 153.508782029211716, -28.190001519642891 ], [ 153.503236875673878, -28.221846489325053 ], [ 153.517809717781233, -28.193329540592572 ], [ 153.586301881738081, -28.258193508118143 ], [ 153.552877856750911, -28.477217506401825 ], [ 153.583447355244431, -28.614697020606982 ], [ 153.638601796564558, -28.633471506417482 ], [ 153.606633802425961, -28.843283524762253 ], [ 153.526582847487987, -28.873813506790988 ], [ 153.580100820420029, -28.881203502332852 ], [ 153.359805985093573, -29.263702072780688 ], [ 153.294422598165397, -29.825067060435728 ], [ 153.016866642714319, -30.56516556801671 ], [ 152.998949608558405, -30.761458467691149 ], [ 153.085086575666452, -30.925660487578796 ], [ 152.964191031122226, -31.218710467616376 ], [ 152.93798390004676, -31.471697816865976 ], [ 152.869925479818363, -31.537369980545215 ], [ 152.747095953761942, -31.845020570572064 ], [ 152.541848053686721, -32.042655771700581 ], [ 152.505608074284368, -32.14691112889097 ], [ 152.570869726300145, -32.215584215825224 ], [ 152.510887241745081, -32.453402961639014 ], [ 152.3276103853687, -32.533414224234299 ], [ 152.186238444119738, -32.682615401529262 ], [ 151.968369687422864, -32.654366430239101 ], [ 151.973401526903331, -32.727361961249741 ], [ 152.185709630320247, -32.711085401683022 ], [ 152.132492440296375, -32.764344396898636 ], [ 151.791008469747908, -32.890887324910892 ], [ 151.817026415190497, -32.823915936920663 ], [ 151.685977043188899, -32.823128294399005 ], [ 151.729763529712898, -32.879094778974832 ], [ 151.696460460446701, -32.83292933546808 ], [ 151.774409636614195, -32.85666438307809 ], [ 151.776964517296847, -32.923435373801048 ], [ 151.640308514415921, -33.084901381926791 ], [ 151.6140054944035, -32.962690378554065 ], [ 151.582317574388867, -33.070239316315337 ], [ 151.513077339299741, -33.1051073700065 ], [ 151.565146622703338, -33.100573354903815 ], [ 151.526445560636688, -33.156081311634509 ], [ 151.567875422323681, -33.175262375694906 ], [ 151.65785347101388, -33.092193383647519 ], [ 151.552230457887049, -33.299061355093123 ], [ 151.507532479497712, -33.333514341107417 ], [ 151.585790455431379, -33.208110347627645 ], [ 151.557918550771944, -33.197146334907131 ], [ 151.447167810153957, -33.316893145288795 ], [ 151.448905494854074, -33.354669715720803 ], [ 151.490256521242571, -33.338494379509811 ], [ 151.444218327262149, -33.490721676242615 ], [ 151.364302463147226, -33.530698319000997 ], [ 151.365464235531988, -33.436962098447111 ], [ 151.319023902612912, -33.432765384056395 ], [ 151.345961328830299, -33.507554317114092 ], [ 151.267465493333589, -33.556650320100609 ], [ 151.152350502444904, -33.459826318666522 ], [ 151.068453474222537, -33.460091490866894 ], [ 151.154345921471474, -33.465048698889341 ], [ 151.123657507885753, -33.600029106985204 ], [ 151.176965471697855, -33.514658281348296 ], [ 151.246827403384771, -33.578098308320854 ], [ 151.15969518473355, -33.660484020766958 ], [ 151.31070546424769, -33.57893832430949 ], [ 151.27330048233938, -33.6327193211836 ], [ 151.310569452496935, -33.666773324916164 ], [ 151.316176440517467, -33.601020334978493 ], [ 151.332750423098076, -33.638872336800766 ], [ 151.309195399725809, -33.688879164943032 ], [ 151.269760731682084, -33.716032961439012 ], [ 151.317657451418, -33.741786336109186 ], [ 151.289235769487561, -33.786239053756923 ], [ 151.202937373483707, -33.773548845595876 ], [ 151.253781418918805, -33.828094320731132 ], [ 151.211916401892182, -33.850480506974584 ], [ 151.144162447927869, -33.802979300322001 ], [ 151.13590746463214, -33.836456349788307 ], [ 151.092855683032866, -33.819611465665666 ], [ 151.051108378383248, -33.824225511821972 ], [ 151.28485239704699, -33.883353324028008 ], [ 151.249947436189871, -34.001034321584434 ], [ 151.168038424851943, -33.949761303575919 ], [ 151.01795453310109, -33.974512279801338 ], [ 151.065611334015273, -33.991206294337339 ], [ 151.041638532456403, -34.028660332374947 ], [ 151.230163418119133, -34.007817329781744 ], [ 151.072315863476859, -34.062684725459214 ], [ 151.171766405929617, -34.086490304879369 ], [ 150.924773359917594, -34.323523773617524 ], [ 150.915938409423433, -34.485759403926259 ], [ 150.796800588835652, -34.54618619338185 ], [ 150.869656476200959, -34.560326490176344 ], [ 150.848522228425452, -34.715470309300571 ], [ 150.749556263574533, -34.860606141213083 ], [ 150.784723371293722, -34.986561295298998 ], [ 150.849355338080358, -35.012506291413899 ], [ 150.80617429344656, -35.09433929800381 ], [ 150.760354334185138, -34.992198273103128 ], [ 150.671248421503861, -35.037066185259427 ], [ 150.701132465366129, -35.12315107857642 ], [ 150.593847118748641, -35.14396722893396 ], [ 150.39107240506533, -35.474336312804937 ], [ 150.407675325061149, -35.529603244675826 ], [ 150.258719342538797, -35.718524242546167 ], [ 150.19775533126699, -35.723847237122634 ], [ 150.236254307810697, -35.779410230941011 ], [ 150.152684316715948, -35.883983234168156 ], [ 150.135304271564678, -36.311281235458509 ], [ 150.06666624053355, -36.398982229925103 ], [ 150.068207249115915, -36.554257231085025 ], [ 149.90452688440692, -36.927964859025955 ], [ 149.944057200425846, -37.055652213349617 ], [ 149.872981188389303, -37.082252207245268 ], [ 149.987526161531548, -37.141030237752204 ], [ 150.044794155789589, -37.258841243596834 ], [ 149.977405169058073, -37.243128217516087 ] ], [ [ 148.877719547963011, -35.714948682491723 ], [ 148.886684494508017, -35.81005085388005 ], [ 148.966300550904776, -35.897167241175303 ], [ 149.046386315308268, -35.920517208111733 ], [ 149.100605410357304, -35.814690632013161 ], [ 149.078153273026885, -35.58640404857983 ], [ 149.142687072185481, -35.592776354113205 ], [ 149.152421303889867, -35.410661943720541 ], [ 149.206466753809309, -35.345859747897222 ], [ 149.347527161559839, -35.350227660021467 ], [ 149.394790730335927, -35.30317587377435 ], [ 149.26270931633465, -35.258204012118725 ], [ 149.120953424969429, -35.12440293910884 ], [ 148.810140879663919, -35.307435124083753 ], [ 148.762795683484029, -35.495486121380189 ], [ 148.804152479591778, -35.714006166305417 ], [ 148.856088996467491, -35.753531680929626 ], [ 148.877719547963011, -35.714948682491723 ] ] ] } },
{ "type": "Feature", "properties": { "id": "2", "state_code": "2", "state": "Victoria" }, "geometry": { "type": "MultiPolygon", "coordinates": [ [ [ [ 143.511346054722964, -38.857679708827945 ], [ 143.427414947607673, -38.782648763154839 ], [ 143.232753294597558, -38.766256701050764 ], [ 143.080839083577359, -38.651004761101575 ], [ 142.791475873671203, -38.571278863250704 ], [ 142.372211270202371, -38.349404637366263 ], [ 142.146612327038895, -38.389692524696834 ], [ 141.932915535457511, -38.279390032002716 ], [ 141.742020932056903, -38.25309606125623 ], [ 141.603246931842477, -38.311483664001784 ], [ 141.649978676296229, -38.392416817035496 ], [ 141.549469660949569, -38.432170581795063 ], [ 141.4610260530429, -38.36208308659392 ], [ 141.364097259243152, -38.376997421476524 ], [ 141.397865926516232, -38.338052573054291 ], [ 141.357446129269931, -38.27458426051161 ], [ 140.965802617957763, -38.055984948586499 ], [ 140.963688948009008, -33.980636402904551 ], [ 141.019453213752627, -34.05729724629159 ], [ 141.207202524681549, -34.061175216122351 ], [ 141.494646783405415, -34.154499762033772 ], [ 141.533038833058782, -34.211435494477449 ], [ 141.710421144728798, -34.098272983374088 ], [ 142.074490916417545, -34.130478123785323 ], [ 142.085012161284538, -34.173739804663093 ], [ 142.165867910653191, -34.152252949085671 ], [ 142.321616461480261, -34.336922809174858 ], [ 142.396804859798721, -34.338082403500955 ], [ 142.351848421049112, -34.406061811364083 ], [ 142.368414878349569, -34.527075103111756 ], [ 142.472800758073959, -34.575265179451549 ], [ 142.453825846373292, -34.630230128714047 ], [ 142.517050945914207, -34.754809393196034 ], [ 142.615786877850638, -34.785247259153451 ], [ 142.617862052341536, -34.729204498907812 ], [ 142.679527131856219, -34.739072122589683 ], [ 142.703416670335372, -34.5974971030655 ], [ 142.810096356952897, -34.560706759127996 ], [ 142.803449033961158, -34.607113069039329 ], [ 142.891000764010727, -34.67981656472498 ], [ 142.924719601408327, -34.649578696540104 ], [ 142.967701441026293, -34.691657529391129 ], [ 143.161695980268377, -34.697902621146035 ], [ 143.351553281868007, -34.795991003407288 ], [ 143.319744353046161, -34.948391572451946 ], [ 143.396386328647452, -35.193100538775361 ], [ 143.563933301224324, -35.202613689246668 ], [ 143.565883937898803, -35.34271120028248 ], [ 143.642345140264979, -35.401024105452272 ], [ 143.764650741533501, -35.392799953111258 ], [ 144.104924298191946, -35.590711106183363 ], [ 144.267925346053062, -35.753766117847867 ], [ 144.327529946562549, -35.752590141745934 ], [ 144.408544698956376, -35.898877678026174 ], [ 144.683913484437767, -36.095124607622935 ], [ 144.80579290163567, -36.123829286020616 ], [ 144.863466278904241, -36.059098249509745 ], [ 144.982411528283933, -36.071544777691692 ], [ 144.923621936368477, -35.988938043145446 ], [ 144.968184871855783, -35.865829115385566 ], [ 145.113928753063902, -35.820575225087019 ], [ 145.360174909134884, -35.86181076244246 ], [ 145.557999102062126, -35.817407706059385 ], [ 145.795860185930366, -35.983647254077937 ], [ 145.94607957416514, -35.961320834746239 ], [ 146.366902066572578, -36.050085626110551 ], [ 146.421581597225583, -35.965965329613553 ], [ 146.923435860299435, -36.108673938314951 ], [ 147.035069101613004, -36.11496329689659 ], [ 147.112005162582193, -36.000816732063463 ], [ 147.319156492336816, -36.061115868505347 ], [ 147.405024112520209, -35.943507104434218 ], [ 147.494117548321782, -35.943535861419747 ], [ 147.555251071468177, -36.003196506624462 ], [ 147.70841984601384, -35.928531578254585 ], [ 147.912795025413317, -35.995498255018845 ], [ 147.923376058089417, -36.041838626174012 ], [ 147.984217928258005, -36.042929871075678 ], [ 148.038216398356354, -36.378617827636631 ], [ 148.124721583689819, -36.464827215204714 ], [ 148.124453213006859, -36.550967635744911 ], [ 148.217449151914536, -36.598840363621008 ], [ 148.104431956426453, -36.789738245672439 ], [ 149.976197552811584, -37.505146559097 ], [ 149.80819407500428, -37.546542844534486 ], [ 149.676669937931365, -37.68407606388395 ], [ 149.470369260800481, -37.769621516481799 ], [ 148.366208313023833, -37.803935483532761 ], [ 147.850604194797768, -37.929535692494298 ], [ 147.467164801744076, -38.159134723516694 ], [ 146.925522472131433, -38.594211964252779 ], [ 146.384604452706697, -38.719916284301675 ], [ 146.338831206413943, -38.673833280628571 ], [ 146.227737664285371, -38.689667272529604 ], [ 146.18886370620757, -38.731507069928924 ], [ 146.291923206990674, -38.904267928566071 ], [ 146.417011461285824, -38.848909347494676 ], [ 146.436189156114381, -38.780953018506601 ], [ 146.47889677626452, -38.799258481799363 ], [ 146.489300830836754, -38.910450883252565 ], [ 146.436682861900522, -38.97905941974858 ], [ 146.483431503496917, -39.060632583726004 ], [ 146.430842272351072, -39.065766349839528 ], [ 146.420922516784998, -39.125840179465101 ], [ 146.324684998073167, -39.093960102136165 ], [ 146.343494318751937, -39.060502243325615 ], [ 146.188559759317855, -38.872869570767172 ], [ 146.063199949092223, -38.81175955122702 ], [ 145.921742792872067, -38.909514111551125 ], [ 145.793329671967797, -38.68781645095271 ], [ 145.729501698336549, -38.645096886119262 ], [ 145.652944638181367, -38.677993860856454 ], [ 145.560530857777877, -38.65122291413055 ], [ 145.493233929807587, -38.563850898840997 ], [ 145.363898327737843, -38.52072520948763 ], [ 145.418251708893422, -38.513497873255318 ], [ 145.423360839470718, -38.412441922996429 ], [ 145.518869902417151, -38.413696869733016 ], [ 145.55245680322966, -38.35455284174553 ], [ 145.488993908194573, -38.233400866517364 ], [ 145.254225840604391, -38.223596870014163 ], [ 145.197156708531992, -38.332226886717535 ], [ 145.234676793245143, -38.409415469794148 ], [ 145.100004917967794, -38.401874810427302 ], [ 145.02568472252139, -38.479660805789891 ], [ 144.924403728592353, -38.497382528967456 ], [ 144.651913748125338, -38.304063479352607 ], [ 144.774552770371002, -38.35945679795028 ], [ 144.937998903144774, -38.343501838956534 ], [ 145.109510453859428, -38.153413979559467 ], [ 145.10987174565804, -38.046004498922812 ], [ 144.913337732234652, -37.842069804189173 ], [ 144.518508919496583, -38.044383208848387 ], [ 144.505526856761094, -38.091526798274366 ], [ 144.382511838881356, -38.087031600099209 ], [ 144.355944838729783, -38.132780788628018 ], [ 144.390774010847451, -38.149240111025563 ], [ 144.635499902169812, -38.107714827049733 ], [ 144.719675083224047, -38.146103792941283 ], [ 144.614531146064195, -38.291858676772755 ], [ 144.37646307711762, -38.302582391017879 ], [ 144.036503509434567, -38.475761849880861 ], [ 143.837013902680468, -38.692779748388759 ], [ 143.685377225687176, -38.735346759022661 ], [ 143.511346054722964, -38.857679708827945 ] ] ], [ [ [ 145.290277867525589, -38.283656862893466 ], [ 145.502618762206367, -38.353019868213522 ], [ 145.35255750115445, -38.420035388078659 ], [ 145.276661937793136, -38.391724162606913 ], [ 145.290277867525589, -38.283656862893466 ] ] ] ] } },
{ "type": "Feature", "properties": { "id": "3", "state_code": "3", "state": "Queensland" }, "geometry": { "type": "MultiPolygon", "coordinates": [ [ [ [ 138.626737637489015, -16.768142427128147 ], [ 139.03868456425451, -16.912429845350847 ], [ 139.157934071070997, -17.029218961369953 ], [ 139.155055045028774, -17.163878722336218 ], [ 139.247588231237273, -17.327277517637114 ], [ 139.41741785758316, -17.37458628542025 ], [ 139.752757275110582, -17.575863652027188 ], [ 139.821775850669582, -17.570603325126761 ], [ 139.982914862936639, -17.704742003631246 ], [ 140.378219437131435, -17.679699702088676 ], [ 140.827314248454542, -17.458437172280906 ], [ 140.895042809959079, -17.347246994760209 ], [ 140.973598345354873, -16.969827645613329 ], [ 141.22119372672114, -16.656086805657889 ], [ 141.304981812349808, -16.4599367083662 ], [ 141.346629642582485, -16.230037298622413 ], [ 141.432777926001393, -16.074747251829734 ], [ 141.373386968403992, -15.916898487411844 ], [ 141.665071200924956, -15.034998675414833 ], [ 141.525617839221354, -14.487072763420887 ], [ 141.594135113726622, -14.160763454290246 ], [ 141.467200066634348, -13.864235435104533 ], [ 141.55061028210045, -13.50692543646767 ], [ 141.691827189981012, -13.240277451692048 ], [ 141.583170098585839, -12.99670705386163 ], [ 141.735617129173619, -12.857396420776494 ], [ 141.805404915928818, -12.678386442992332 ], [ 141.893770256200867, -12.601936497104333 ], [ 141.702015689402685, -12.519557536108557 ], [ 141.686845627785431, -12.561217445655593 ], [ 141.591435221922524, -12.564067440622171 ], [ 141.879987852985323, -11.954398670829734 ], [ 141.932353264256761, -12.070867464658752 ], [ 142.01224340263019, -12.039097448731637 ], [ 141.942765219089097, -11.976612464417185 ], [ 142.126838259273342, -11.305771418717523 ], [ 142.129445508529926, -10.96237826590691 ], [ 142.355679294743197, -10.878941467731016 ], [ 142.423860270902594, -10.727404470244796 ], [ 142.527733028979753, -10.694639385821587 ], [ 142.609281612826436, -10.749009410924458 ], [ 142.498663064228282, -10.968108916539951 ], [ 142.575063117074706, -10.869588560019725 ], [ 142.786066317096584, -11.074167533879461 ], [ 142.78316721841415, -11.222656464996419 ], [ 142.868286305460089, -11.384385471326379 ], [ 142.856366318371272, -11.845504524616535 ], [ 142.970266348484301, -11.93092355199957 ], [ 143.09621817553662, -11.892829519083485 ], [ 143.185592065802268, -11.990804505231294 ], [ 143.092957209518488, -12.157611491177741 ], [ 143.083071208347889, -12.347401982230808 ], [ 143.195718963276022, -12.349962068936707 ], [ 143.271907496559805, -12.40472196396043 ], [ 143.274834639976063, -12.508781815034013 ], [ 143.436461985632207, -12.623270545761958 ], [ 143.350619122715983, -12.891238542886104 ], [ 143.542966126855163, -12.844447554150964 ], [ 143.502158090998421, -13.124262554075734 ], [ 143.537912084953774, -13.350043558201545 ], [ 143.596760076245317, -13.442109562596125 ], [ 143.530899059645492, -13.752011561230315 ], [ 143.67804002556349, -14.011569562493536 ], [ 143.698333023296328, -14.184781575233758 ], [ 143.805638001570969, -14.432176584013472 ], [ 143.949240959823783, -14.495660603544719 ], [ 144.060600965929098, -14.465974600318376 ], [ 144.194658967435146, -14.3387806177541 ], [ 144.195370982598519, -14.261393597133477 ], [ 144.314015973294516, -14.308313625148481 ], [ 144.52373741192747, -14.169919127551575 ], [ 144.595799972017517, -14.260267643046147 ], [ 144.58889800527578, -14.363217603482388 ], [ 144.646437953168174, -14.350474647151117 ], [ 144.619385925864776, -14.476405646459559 ], [ 144.68440935714338, -14.5528259513989 ], [ 144.775065932831779, -14.546092657337889 ], [ 144.781628929209887, -14.592914638177522 ], [ 144.910381940873293, -14.614560666944577 ], [ 145.023451912029344, -14.795336666098555 ], [ 145.229712888092536, -14.835081690431368 ], [ 145.280876896663102, -14.954925694965079 ], [ 145.351967862944235, -14.952979679826734 ], [ 145.238723871490777, -15.196279684165892 ], [ 145.270774845185827, -15.258664686895726 ], [ 145.344858852923551, -15.233164701758273 ], [ 145.354527849130648, -15.277769702808229 ], [ 145.283329849729682, -15.324091698319682 ], [ 145.239810853879845, -15.438225686325577 ], [ 145.361287246405766, -15.719578877080222 ], [ 145.362941811453737, -15.921765698932575 ], [ 145.477014993243614, -16.077337848153526 ], [ 145.444920715990946, -16.200856736989937 ], [ 145.477085128541802, -16.27521732985695 ], [ 145.418176137407215, -16.33828735631824 ], [ 145.413613768179317, -16.466398707100339 ], [ 145.466010944166584, -16.477395690821872 ], [ 145.781875209646898, -16.941024876903121 ], [ 145.848995790770772, -16.871188731058407 ], [ 145.953331982804826, -16.889869018643665 ], [ 145.891983573251622, -17.064261525764785 ], [ 146.073313235845376, -17.397079961579053 ], [ 146.036094578446807, -17.523039799980697 ], [ 146.127933236992106, -17.592529067181758 ], [ 146.13853375128889, -17.656298848490763 ], [ 146.092677129317821, -17.97477810789643 ], [ 146.008039323611314, -18.120517783053437 ], [ 146.026265441216395, -18.262505785565427 ], [ 146.189380113214554, -18.47381483911855 ], [ 146.333029539393209, -18.521438789972475 ], [ 146.278631485336746, -18.868753028944756 ], [ 146.456635605864392, -19.075050843720071 ], [ 146.650243473557566, -19.176191818899202 ], [ 146.774081393538467, -19.188613858248107 ], [ 146.903828584401879, -19.304848158983965 ], [ 147.040660662566296, -19.208029418525708 ], [ 147.119450409651392, -19.411145846245567 ], [ 147.410452297026779, -19.425946868757777 ], [ 147.462916516580918, -19.386549922497014 ], [ 147.618119299497749, -19.681678917112542 ], [ 147.586811208040444, -19.725081875027339 ], [ 147.708543358753303, -19.841191885567238 ], [ 147.764596334909129, -19.837065909954088 ], [ 147.754245347041859, -19.708170908046011 ], [ 147.84725532820525, -19.729802935590147 ], [ 147.869509445055797, -19.859424908453864 ], [ 147.938491184618357, -19.91846390444233 ], [ 148.080116247242927, -19.881851915462924 ], [ 148.113184289411237, -19.941353938624093 ], [ 148.266416274022674, -19.983853961356395 ], [ 148.229095391909482, -20.038280938794863 ], [ 148.342024142903966, -20.153009978928694 ], [ 148.478772295839889, -20.116588959786061 ], [ 148.440735402649892, -20.073783976310189 ], [ 148.553421142073972, -20.095977985738656 ], [ 148.582651360473108, -20.197627939005141 ], [ 148.68512030860046, -20.241386947836052 ], [ 148.677382095271128, -20.283578947552854 ], [ 148.773288281782101, -20.242327015157898 ], [ 148.929024213157021, -20.52620303055782 ], [ 148.824493193622828, -20.501081971610184 ], [ 148.813943021949626, -20.42101796005397 ], [ 148.762959750435499, -20.479237756304254 ], [ 148.692163188972756, -20.446464610154145 ], [ 148.669271179135905, -20.571008999311346 ], [ 148.730805340706183, -20.71664401563827 ], [ 148.840797025053405, -20.791095685418089 ], [ 148.844812266743617, -20.875754036466521 ], [ 149.029040090075881, -20.897693002094691 ], [ 149.017389131868583, -20.993430021920542 ], [ 149.088813127884436, -20.97566902779219 ], [ 149.22613895488206, -21.101050090483746 ], [ 149.163480976914173, -21.132010075425782 ], [ 149.152590326484045, -21.145550054616898 ], [ 149.19890408319182, -21.141167038507742 ], [ 149.196195068329928, -21.297336049591124 ], [ 149.257690088401887, -21.245270044381741 ], [ 149.298669942379291, -21.273279048109885 ], [ 149.316590049183588, -21.394069020654587 ], [ 149.274751884311854, -21.479160067799942 ], [ 149.396525212885393, -21.494319918335069 ], [ 149.378195890641592, -21.532569907085641 ], [ 149.437819993681217, -21.553768102377166 ], [ 149.483749142154949, -21.53102807613519 ], [ 149.43223313023293, -21.796998053935763 ], [ 149.466293084459267, -21.928137047959975 ], [ 149.597300338289273, -22.281456482213379 ], [ 149.704303760333943, -22.369434072231947 ], [ 149.731064020226682, -22.347764064380883 ], [ 149.752110169495126, -22.436371266953014 ], [ 149.784315942393647, -22.380310159296229 ], [ 149.850882082875813, -22.418073065432363 ], [ 150.042186022147206, -22.655883224242661 ], [ 149.913005194891525, -22.345834460279203 ], [ 149.963992347982241, -22.174214513329932 ], [ 150.044234936172217, -22.125450129999248 ], [ 150.175091891595116, -22.355234743516807 ], [ 150.497651902762527, -22.560220204111122 ], [ 150.592255364164686, -22.564750702699733 ], [ 150.53610408698799, -22.392660826182773 ], [ 150.5660868324305, -22.316209148253815 ], [ 150.645781762419915, -22.347310125736151 ], [ 150.615092810200451, -22.393320343336928 ], [ 150.749705893342025, -22.444678226007014 ], [ 150.726002527727474, -22.517039714451233 ], [ 150.653563397175134, -22.486140177603676 ], [ 150.679074005856563, -22.572890260646435 ], [ 150.721117913996864, -22.556339154334548 ], [ 150.709066916684151, -22.635372203896853 ], [ 150.789279940210093, -22.536942180390778 ], [ 150.777741990394134, -22.638953810188813 ], [ 150.831094470952081, -22.684607945447784 ], [ 150.75345422335576, -23.101356911820943 ], [ 150.824467687927694, -23.280288199794793 ], [ 150.77015529065369, -23.300002994992695 ], [ 150.87113663226836, -23.480081175725005 ], [ 150.7906457067281, -23.505957208568717 ], [ 150.868498692077168, -23.576749206281978 ], [ 150.9377488694102, -23.543589232369087 ], [ 151.0265575883179, -23.571999180789646 ], [ 151.171418639635363, -23.805788246140558 ], [ 151.322440618388526, -23.873429250779605 ], [ 151.426994556130893, -23.987649281523201 ], [ 151.441787594779186, -24.077299263651863 ], [ 151.466776151658308, -23.994982185324726 ], [ 151.5439438207313, -24.029279062882242 ], [ 151.525484195691888, -24.089489371635633 ], [ 151.563638629713751, -24.111398315419024 ], [ 151.555323715127173, -24.069959164292172 ], [ 151.610392683137036, -24.042488919274557 ], [ 151.657302003420028, -24.09048888411639 ], [ 151.685661443417985, -24.067308736617814 ], [ 151.625752369388493, -23.974228590166796 ], [ 151.730555494266838, -24.023166280522595 ], [ 151.720825429993937, -24.068967279974281 ], [ 151.7691201900968, -24.028737874241713 ], [ 151.787584507738927, -24.122956296778995 ], [ 151.944523629513725, -24.243525272792908 ], [ 152.046005487550019, -24.526762324886075 ], [ 152.296998421021783, -24.723781330831894 ], [ 152.395520348991369, -24.746858340639886 ], [ 152.382264414395905, -24.796742369751922 ], [ 152.413358435982161, -24.758101362477667 ], [ 152.468180583964369, -24.816073378325385 ], [ 152.496810250402035, -24.99257437257948 ], [ 152.63303817840486, -25.151769347298131 ], [ 152.547935110305417, -25.204839319338742 ], [ 152.614974476393542, -25.183262415771274 ], [ 152.721689255815448, -25.269024427026164 ], [ 152.886791328384987, -25.280968413543679 ], [ 152.90944130952056, -25.418803446926994 ], [ 152.823742298796674, -25.493990768993584 ], [ 152.956064793219383, -25.433292051705561 ], [ 152.861919317863368, -25.553424333279224 ], [ 152.976013250124936, -25.771156436444638 ], [ 152.936712268668003, -25.815023422867 ], [ 152.988585264833063, -25.804255427971949 ], [ 153.031823371441106, -25.878516412908752 ], [ 152.999481363725181, -25.967731440385794 ], [ 153.065552137085803, -25.886641456361943 ], [ 153.185410158701529, -25.938941448858763 ], [ 153.061373164928881, -26.313154149381376 ], [ 153.115330009182969, -26.395875405474232 ], [ 153.099131460039047, -26.643501605828821 ], [ 153.15071903510696, -26.800296432280081 ], [ 153.042768085200748, -26.969446442764205 ], [ 153.144079611209492, -27.075837523806847 ], [ 153.041498082236501, -27.153774444102794 ], [ 153.11644504633307, -27.217140452144527 ], [ 153.091713043981997, -27.256617449967631 ], [ 153.058554051025681, -27.228622456410672 ], [ 153.066578380283374, -27.307182737840307 ], [ 153.156350403582422, -27.363680637329537 ], [ 153.123750019079779, -27.426774464541971 ], [ 153.047263035372168, -27.441786446964812 ], [ 153.050877992386546, -27.462365677490777 ], [ 153.011260025810714, -27.4689114435647 ], [ 152.965809054974756, -27.514289439367353 ], [ 152.966447031229336, -27.54346543966167 ], [ 152.947134045405164, -27.526829437596781 ], [ 152.903948057135722, -27.550050433461845 ], [ 152.888926033700045, -27.590257442278723 ], [ 153.007616879279226, -27.523787473632865 ], [ 153.007899025516991, -27.474101443268555 ], [ 153.050142520745027, -27.475988007524574 ], [ 153.135810937915494, -27.42577779574971 ], [ 153.188847012427175, -27.345447470465821 ], [ 153.169381254536631, -27.424105319123044 ], [ 153.192016035493339, -27.476275451821735 ], [ 153.259944607368993, -27.482918928746539 ], [ 153.300463363658622, -27.712670154668839 ], [ 153.391271964562208, -27.707000573854291 ], [ 153.424879941578126, -27.77960209785083 ], [ 153.351373876703377, -27.801766680541668 ], [ 153.38606693951823, -27.828300154280104 ], [ 153.348046922009019, -27.918750481123784 ], [ 153.404838297984639, -27.901891776770807 ], [ 153.447586850768118, -28.076048072497411 ], [ 153.552177137762982, -28.164395983884955 ], [ 153.485862736034505, -28.157023937041156 ], [ 153.363506307788469, -28.247636315274523 ], [ 153.207398144414526, -28.252972579483675 ], [ 153.108553412103078, -28.356314960314979 ], [ 152.878098943540152, -28.311726936857578 ], [ 152.750954951125351, -28.363866924603474 ], [ 152.614247978356673, -28.269463910325637 ], [ 152.579511473455398, -28.339185407439896 ], [ 152.487641394506937, -28.253481767725329 ], [ 152.385204991544953, -28.368782388575575 ], [ 152.309373000813622, -28.362826881117453 ], [ 152.217240500447048, -28.449100872813528 ], [ 151.958192021504686, -28.515931848277205 ], [ 152.011601997383593, -28.661834354551264 ], [ 152.076040984243548, -28.708331861132525 ], [ 152.023510467562716, -28.890831357468077 ], [ 151.839846346044823, -28.912880949985194 ], [ 151.825743481359098, -28.963961339028337 ], [ 151.770635988763644, -28.955752333697557 ], [ 151.72642200482403, -28.866942328796352 ], [ 151.543871515231899, -28.954544812138739 ], [ 151.395431505358232, -29.177317299851005 ], [ 151.311893017139425, -29.161152291888556 ], [ 151.279082028518332, -29.09913678834252 ], [ 151.274748048462641, -28.938562286705498 ], [ 151.04636758621578, -28.845244764735778 ], [ 151.02617809930257, -28.755154762174197 ], [ 150.768352642789694, -28.639232737560427 ], [ 150.632900654024269, -28.676774725493335 ], [ 150.414386182175804, -28.651984705523844 ], [ 150.292910709382227, -28.537657193731668 ], [ 149.704705766554355, -28.633537642463224 ], [ 149.5030397965551, -28.574519124500132 ], [ 149.385183797337532, -28.691374115237078 ], [ 149.080039316414172, -28.843460090356185 ], [ 149.03115680976299, -28.957157087084372 ], [ 148.958088233856699, -28.999051081236352 ], [ 140.999272283093688, -28.999086880404981 ], [ 140.999395977061198, -25.996378018307709 ], [ 137.99906130486545, -25.996849173538216 ], [ 137.9946539678389, -16.538296570524707 ], [ 138.195094838465565, -16.696305129458171 ], [ 138.427911709983533, -16.7772436192292 ], [ 138.626737637489015, -16.768142427128147 ] ] ], [ [ [ 139.39458209302569, -17.081597522044298 ], [ 139.492840491359175, -16.980857185552328 ], [ 139.577990340354717, -17.093536490249651 ], [ 139.415802169469089, -17.127017333343481 ], [ 139.39458209302569, -17.081597522044298 ] ] ], [ [ [ 139.477687933954002, -16.526628231187054 ], [ 139.451268979018835, -16.666248061159596 ], [ 139.393089404111578, -16.63725844836944 ], [ 139.31306074488225, -16.730218695635088 ], [ 139.22926511016459, -16.732677352029569 ], [ 139.160465140256093, -16.609817358078114 ], [ 139.309535157665351, -16.461325373295349 ], [ 139.550920115793559, -16.390798363321991 ], [ 139.676395535034544, -16.450597329419047 ], [ 139.711535688865126, -16.532206931668593 ], [ 139.477687933954002, -16.526628231187054 ] ] ], [ [ [ 142.11161246614256, -10.660740422329431 ], [ 142.204630196463597, -10.594816046882958 ], [ 142.27743133748217, -10.706469431880725 ], [ 142.177871157509202, -10.770860476923675 ], [ 142.11161246614256, -10.660740422329431 ] ] ], [ [ [ 142.340796414962426, -10.183313490889423 ], [ 142.281867272690874, -10.259303458265219 ], [ 142.185750339788086, -10.192574452368 ], [ 142.26589518136177, -10.115775496137452 ], [ 142.340796414962426, -10.183313490889423 ] ] ], [ [ [ 146.236357374257494, -18.294195661002732 ], [ 146.296645775073017, -18.232035844861134 ], [ 146.276236830988751, -18.300775443958504 ], [ 146.351327106196464, -18.42081444045602 ], [ 146.326648242748632, -18.485164149198802 ], [ 146.250269337765729, -18.488954483665982 ], [ 146.070589469355696, -18.247446698622586 ], [ 146.236357374257494, -18.294195661002732 ] ] ], [ [ [ 151.215541666580265, -23.796974240172389 ], [ 151.046417711177952, -23.621139173030642 ], [ 150.98869855989588, -23.496749186674009 ], [ 151.01881869202893, -23.452130259083557 ], [ 151.208894716863, -23.526469267318205 ], [ 151.235234828100488, -23.493569239498836 ], [ 151.225624626259332, -23.609479249562703 ], [ 151.300243593580774, -23.754208257720457 ], [ 151.215541666580265, -23.796974240172389 ] ] ], [ [ [ 153.132200316754933, -26.882345561067911 ], [ 153.207563733793307, -27.081670160262771 ], [ 153.167652445680858, -27.100028316377394 ], [ 153.076952080473546, -26.978579446272615 ], [ 153.077712099363509, -26.906943455778215 ], [ 153.132200316754933, -26.882345561067911 ] ] ], [ [ [ 153.284318483480092, -24.924912440607319 ], [ 153.357897436235362, -25.008904498762199 ], [ 153.107854252950517, -25.559969437968473 ], [ 153.077668327459406, -25.792327476816588 ], [ 153.029203333005455, -25.786268401899253 ], [ 152.944570235781157, -25.586103441797437 ], [ 153.051428604634367, -25.345307660548851 ], [ 153.03979673053496, -25.223663068389193 ], [ 152.996655484366329, -25.226382324084511 ], [ 153.229218301889148, -24.980936445488897 ], [ 153.232779438041035, -24.927593455411948 ], [ 153.122571253395307, -24.804472443280865 ], [ 153.266304452574502, -24.699598436932849 ], [ 153.284318483480092, -24.924912440607319 ] ] ], [ [ [ 153.411599898324937, -27.738392326172441 ], [ 153.41284034676849, -27.515922034542076 ], [ 153.440931959601897, -27.39232016642752 ], [ 153.542930613119779, -27.436036587199013 ], [ 153.45405220500993, -27.728463140423639 ], [ 153.411599898324937, -27.738392326172441 ] ] ], [ [ [ 153.46849469314526, -27.028465866349006 ], [ 153.427011260870074, -27.159061033156128 ], [ 153.421883499207524, -27.333071434015395 ], [ 153.361405630235311, -27.061028525696209 ], [ 153.46849469314526, -27.028465866349006 ] ] ] ] } },
{ "type": "Feature", "properties": { "id": "4", "state_code": "4", "state": "South Australia" }, "geometry": { "type": "MultiPolygon", "coordinates": [ [ [ [ 133.178995242431853, -32.171709427908063 ], [ 132.744899610864564, -31.949054828887036 ], [ 132.53133704206067, -31.934930795342794 ], [ 132.271146067728921, -32.032385781999515 ], [ 132.17641737176325, -32.018299010546436 ], [ 131.802795470752443, -31.744856293846869 ], [ 131.12957530122344, -31.464350294615475 ], [ 130.791370587707064, -31.60698725245668 ], [ 129.938363149903296, -31.588611746864725 ], [ 129.001927543863019, -31.686990625022766 ], [ 129.001846936233079, -25.998591869552808 ], [ 140.999395977061198, -25.996378018307709 ], [ 140.965802617957763, -38.055984948586499 ], [ 140.660648862204738, -38.06001755298788 ], [ 140.50866657547769, -37.984023614899847 ], [ 140.373011327347058, -37.886961567588251 ], [ 140.113450777426152, -37.575288593058737 ], [ 140.120846959507674, -37.530851533149047 ], [ 139.997241704579238, -37.486617526948734 ], [ 139.757530028134425, -37.194371493864963 ], [ 139.79521086662254, -37.12550952521287 ], [ 139.670325130318503, -36.958729728380746 ], [ 139.850483859139871, -36.823488515976862 ], [ 139.861173727238082, -36.6870920256478 ], [ 139.670737810855542, -36.248731334056764 ], [ 139.330516905092537, -35.850544476082824 ], [ 139.10277294410281, -35.679621074914301 ], [ 138.711499189073692, -35.513414437030491 ], [ 138.538970830044491, -35.630699670532913 ], [ 138.19470521468557, -35.665056486701076 ], [ 138.095537143506419, -35.623857462494435 ], [ 138.165495228228878, -35.51936342463344 ], [ 138.442977433557076, -35.342527464779181 ], [ 138.511796430868657, -35.040922645732394 ], [ 138.475813438267096, -34.849949383047033 ], [ 138.515756076653076, -34.771559464202006 ], [ 138.497939044682937, -34.850761273964785 ], [ 138.56620023533128, -34.825380466633497 ], [ 138.263716304373901, -34.473689192029866 ], [ 138.094030260636856, -34.133872623098966 ], [ 138.001510247789071, -34.261592430269822 ], [ 138.007103211939153, -34.349018421043134 ], [ 137.915982541623777, -34.430791438006388 ], [ 137.87612548844109, -34.598497427519632 ], [ 137.907635202477053, -34.615569458847162 ], [ 137.726883556900276, -35.04912941461378 ], [ 137.759116478011521, -35.11434143624794 ], [ 137.63707724476032, -35.168107431951327 ], [ 137.424351453108187, -35.097863423596003 ], [ 137.140793541330254, -35.243812444235836 ], [ 137.001396515121911, -35.223193429188903 ], [ 136.882738390496684, -35.300348365538639 ], [ 136.829669371731285, -35.250113423405814 ], [ 136.960052328783149, -35.089031426920208 ], [ 136.936210605574047, -35.032030375740035 ], [ 137.010288560636837, -34.895764427480721 ], [ 137.273289378463488, -34.893707406823381 ], [ 137.375403358823178, -34.953713380907352 ], [ 137.448765609372316, -34.910304413331318 ], [ 137.50686745788704, -34.582530433433739 ], [ 137.480059310070487, -34.435558441518438 ], [ 137.414476339724871, -34.448507389184186 ], [ 137.498572333464011, -34.318392391466048 ], [ 137.449605520660725, -34.140289408533185 ], [ 137.538542289131868, -34.096795031549298 ], [ 137.562934801982266, -33.973266421673976 ], [ 137.630647324280432, -33.921808393881278 ], [ 137.600267291389542, -33.876970392456307 ], [ 137.945616276131716, -33.553954103566682 ], [ 137.884569357402881, -33.335856479795254 ], [ 137.81263958231915, -33.261028396545846 ], [ 137.838427451377925, -33.206995467185223 ], [ 138.0269059859734, -33.155070394161257 ], [ 138.040133766778268, -33.104837264353677 ], [ 138.018791203790585, -33.035607533066703 ], [ 137.952322965294741, -33.006397540283572 ], [ 137.916823474009789, -32.759392427295495 ], [ 137.837574499108285, -32.695790413825883 ], [ 137.867053506520023, -32.663326434746189 ], [ 137.803046509079735, -32.60414441190408 ], [ 137.822764498480296, -32.561277412377407 ], [ 137.781363505007306, -32.552425420737706 ], [ 137.757438494777517, -32.433926429049556 ], [ 137.752336800320478, -32.720716800734067 ], [ 137.810730474660545, -32.852427423820167 ], [ 137.750136499904187, -32.922211411963829 ], [ 137.786869730360138, -32.998391683858273 ], [ 137.667526860479541, -32.954120379045641 ], [ 137.442271843731021, -33.15216370195013 ], [ 137.360542831214218, -33.438548180804304 ], [ 137.209499672659831, -33.663551526791863 ], [ 136.593685515869709, -33.899074357051859 ], [ 136.363143663688646, -34.06933536058213 ], [ 136.259831550631588, -34.268881668520876 ], [ 136.131074787495947, -34.343682194926991 ], [ 136.11253238261537, -34.515602065412523 ], [ 136.02821998752961, -34.481907092590248 ], [ 135.9407904896932, -34.520520420149637 ], [ 135.860926747360736, -34.634825258434013 ], [ 135.863091851077314, -34.769188409323682 ], [ 135.786013681661785, -34.810147407263329 ], [ 135.98354997110485, -34.783217073071739 ], [ 135.96053536480099, -35.005312143725781 ], [ 135.847055868711578, -34.880882789524144 ], [ 135.75184022515225, -34.85613588652771 ], [ 135.684601432105183, -34.945846905088544 ], [ 135.620253332573469, -34.944499103197252 ], [ 135.474348224587004, -34.744094387772556 ], [ 135.330220480797834, -34.669242533253716 ], [ 135.341694510601258, -34.629094813328763 ], [ 135.228518622133691, -34.54362027967418 ], [ 135.125207717305386, -34.576673647064283 ], [ 135.1912624221888, -34.44019787802268 ], [ 135.216073286069758, -34.494787049034585 ], [ 135.316166459090113, -34.520700131954797 ], [ 135.297593540769725, -34.552280871632263 ], [ 135.385707112947586, -34.644038004653048 ], [ 135.512662013667182, -34.619459058105477 ], [ 135.391451306553734, -34.53401077414162 ], [ 135.344189775158441, -34.261421871143824 ], [ 135.245178475578541, -34.140629907658059 ], [ 135.270481406574646, -34.015910087584409 ], [ 135.182159925779018, -33.877757374311109 ], [ 134.836465278769424, -33.626516963612936 ], [ 134.843284184899119, -33.430704972571355 ], [ 134.801643344970017, -33.328459100867356 ], [ 134.660673549900253, -33.230119146698357 ], [ 134.717926601192005, -33.230879718136713 ], [ 134.699675726023827, -33.172705837314879 ], [ 134.558271577808853, -33.161433963740748 ], [ 134.629533244253963, -33.240620405989944 ], [ 134.449906484773834, -33.144598191008406 ], [ 134.368660166022607, -33.175585959264332 ], [ 134.359599329008915, -33.127243838749088 ], [ 134.262844565070992, -33.083356856209804 ], [ 134.351000769921882, -33.138841818618296 ], [ 134.316982223237972, -33.193972858161125 ], [ 134.2231761924767, -33.039669035020381 ], [ 134.138465755920492, -33.018355322951358 ], [ 134.205691016781174, -32.98803643429649 ], [ 134.07153543023486, -32.883800830605175 ], [ 134.131832112069105, -32.856623771792741 ], [ 134.060330776962587, -32.722484619347185 ], [ 134.171997070488715, -32.718086521838615 ], [ 134.204040703191254, -32.796891643064775 ], [ 134.287367023915635, -32.700139364384306 ], [ 134.250174414276756, -32.550410352580485 ], [ 134.118543786756902, -32.453810008967324 ], [ 133.920853214605984, -32.495340154853992 ], [ 133.893703387230971, -32.54120533455368 ], [ 133.847152455238046, -32.503377363316112 ], [ 133.86626736546566, -32.401309183085537 ], [ 133.946937933300887, -32.411563714895571 ], [ 133.901996842708741, -32.318203373332707 ], [ 133.825696056254941, -32.237809351190329 ], [ 133.770854813503377, -32.263849740193514 ], [ 133.756022567368461, -32.205423999514224 ], [ 133.679043378677619, -32.202548837893751 ], [ 133.671755872452195, -32.107357327144271 ], [ 133.611501351819101, -32.085549995772709 ], [ 133.55346525791154, -32.169568485126916 ], [ 133.472798561561007, -32.100093743082098 ], [ 133.398446391343867, -32.138127411863202 ], [ 133.405843658602294, -32.19995460239484 ], [ 133.178995242431853, -32.171709427908063 ] ] ], [ [ [ 137.586647305080589, -36.019545425277435 ], [ 137.461125393024219, -36.074839440935193 ], [ 137.351784445887461, -35.993860406424446 ], [ 137.198383412633461, -35.974889390754996 ], [ 137.1304683408286, -36.033967448684663 ], [ 136.708442561610468, -36.036912414054129 ], [ 136.534617698381936, -35.886524387336209 ], [ 136.587443386452691, -35.748843378258513 ], [ 137.068541520722761, -35.668275394271639 ], [ 137.312571435152819, -35.579451422472744 ], [ 137.634170212913148, -35.565472464292519 ], [ 137.569632310560991, -35.618661482194462 ], [ 137.641974277402483, -35.640158425045016 ], [ 137.57792236317141, -35.725657433159782 ], [ 137.780341299729145, -35.723918460820542 ], [ 137.803325193944318, -35.758132421912116 ], [ 137.744176441025019, -35.805610459937093 ], [ 137.749254248544815, -35.834025450304637 ], [ 137.814765238344222, -35.822019452742929 ], [ 137.777564296704838, -35.784340401084037 ], [ 137.852166343703743, -35.794936464019258 ], [ 137.905929489339286, -35.716928445624198 ], [ 138.059120251907672, -35.751945451841088 ], [ 138.134270233961189, -35.843583465384299 ], [ 138.040711285902546, -35.904241492047987 ], [ 137.755379306531154, -35.85127548064407 ], [ 137.60714928736374, -35.919049445436684 ], [ 137.586647305080589, -36.019545425277435 ] ] ] ] } },
{ "type": "Feature", "properties": { "id": "5", "state_code": "5", "state": "Western Australia" }, "geometry": { "type": "MultiPolygon", "coordinates": [ [ [ [ 112.92971446931098, -25.638566749218981 ], [ 112.971802411702896, -25.480494715626662 ], [ 113.1560176753962, -25.887807775026925 ], [ 113.136688564883173, -25.977418706737922 ], [ 113.20361871965433, -26.002948742357539 ], [ 113.236429443306534, -26.09133872056465 ], [ 113.213550741487865, -26.160229762411387 ], [ 112.966425477115834, -25.780298737364198 ], [ 112.92971446931098, -25.638566749218981 ] ] ], [ [ [ 113.632733487081026, -24.797430748316938 ], [ 113.406968725582786, -24.484162951722649 ], [ 113.391655526410887, -24.222511751503461 ], [ 113.443353387982654, -24.181680587875956 ], [ 113.41943238309365, -24.089190079024547 ], [ 113.470198783112778, -23.899337874753115 ], [ 113.613223198108656, -23.630894664032226 ], [ 113.779739379532046, -23.470581702375483 ], [ 113.764486118856922, -23.18033768195993 ], [ 113.829436251304926, -23.030894717010174 ], [ 113.817435293235604, -22.909281667195412 ], [ 113.654022303803501, -22.583379706275913 ], [ 113.995094569589568, -21.875449760611414 ], [ 114.165214807795209, -21.785747379274802 ], [ 114.19102391759273, -21.814567247777582 ], [ 114.080275952613164, -22.156151686542593 ], [ 114.132717989876369, -22.319801014008043 ], [ 114.177508004548727, -22.303210861075744 ], [ 114.122169102238999, -22.474354665447329 ], [ 114.155270333156267, -22.528375863607682 ], [ 114.318539951774909, -22.442863652853923 ], [ 114.342590464209451, -22.506893311661109 ], [ 114.403720105774283, -22.468713217638154 ], [ 114.425260131567299, -22.299683695445275 ], [ 114.461379800270862, -22.327703063330986 ], [ 114.431978979389569, -22.278041164916946 ], [ 114.615758191074207, -21.97617664198134 ], [ 114.643616069549964, -21.848913669617893 ], [ 114.914755664214852, -21.690140362242634 ], [ 115.492079462705235, -21.538283837196442 ], [ 115.555285258596726, -21.409339892856259 ], [ 115.703154327131941, -21.27944962365844 ], [ 115.82151487500019, -21.251509856758652 ], [ 115.879572421831526, -21.125408382801417 ], [ 116.180431736443623, -20.976592535175318 ], [ 116.206029795265579, -20.833060522992877 ], [ 116.295919980641045, -20.881959828305767 ], [ 116.463450002623759, -20.821677498849009 ], [ 116.694365874464026, -20.680740505689204 ], [ 116.808841825763523, -20.52922149879992 ], [ 116.864288820691158, -20.522129505842781 ], [ 116.794583834061854, -20.648484510201957 ], [ 116.812528155459319, -20.697432469521704 ], [ 116.898782869728535, -20.724093415136053 ], [ 116.988637828241053, -20.658287480089896 ], [ 117.128201836210977, -20.65437951285568 ], [ 117.165189800140354, -20.603481480678241 ], [ 117.24207164981793, -20.710718527341594 ], [ 117.458371213935322, -20.754588306673647 ], [ 117.63074095420761, -20.663757487617325 ], [ 117.646561404998678, -20.702127267051686 ], [ 117.810931879468697, -20.673419278863317 ], [ 117.775760912145969, -20.667866240540722 ], [ 117.890737575969737, -20.54954441431347 ], [ 117.967728629403084, -20.54802342060826 ], [ 117.931668121244542, -20.525923592212749 ], [ 117.957978236873572, -20.485932440726828 ], [ 118.19300604922482, -20.335919908738752 ], [ 118.166107384069363, -20.385179860280608 ], [ 118.821523624159383, -20.281524379770797 ], [ 118.995399597647747, -20.034540350713716 ], [ 119.173629219358162, -19.957689492571731 ], [ 119.469822827669361, -20.011242480390138 ], [ 119.574618562052365, -20.07572257643691 ], [ 119.76678739092597, -19.957679327925369 ], [ 120.195945513973342, -19.913894300767819 ], [ 120.631012332606261, -19.770031343573972 ], [ 121.071282559084906, -19.566206266626335 ], [ 121.341900278659168, -19.331239295937188 ], [ 121.511148496645504, -19.093858258845312 ], [ 121.654405425768317, -18.821425292485745 ], [ 121.619344324270571, -18.704835232902184 ], [ 121.789255319840478, -18.661224297165134 ], [ 121.730584301114078, -18.571374238481262 ], [ 121.839392508484707, -18.44371327422169 ], [ 121.908392253939326, -18.46145326216045 ], [ 122.362553459226689, -18.128320226275321 ], [ 122.372606424166378, -17.993699295129343 ], [ 122.175690367846869, -17.974901030882378 ], [ 122.210143662811404, -17.897688949356311 ], [ 122.145178246332151, -17.560339229193801 ], [ 122.173215384589341, -17.263578266465391 ], [ 122.318394381002364, -17.153626241407085 ], [ 122.303493250697557, -17.112406251588641 ], [ 122.251804104748174, -17.128086243234335 ], [ 122.363542353020478, -17.000855209096649 ], [ 122.591370116109871, -16.954933242180282 ], [ 122.533810056326232, -16.836473263075089 ], [ 122.581089230896325, -16.763582261249105 ], [ 122.832006344852488, -16.788668214356505 ], [ 122.741807257727444, -16.683389196184013 ], [ 122.771296292975705, -16.590299234761744 ], [ 122.905784361016217, -16.48567719037851 ], [ 122.925303176923208, -16.389437219224348 ], [ 123.023172080035835, -16.371786236466626 ], [ 123.047252731080192, -16.46295561641347 ], [ 122.991933084525883, -16.456756237856165 ], [ 122.958424260546138, -16.588306259611407 ], [ 123.115092293749143, -16.713753196238837 ], [ 123.149113037439179, -16.924704206710523 ], [ 123.235544372872994, -16.970725244761166 ], [ 123.392737241589529, -17.316239222999144 ], [ 123.459288307888571, -17.350599231561606 ], [ 123.58923929481891, -17.578018249852526 ], [ 123.567629212013657, -17.413938249311322 ], [ 123.646235230531914, -17.183937215914099 ], [ 123.583553090889978, -17.033246176446355 ], [ 123.644071255848615, -16.998015214753249 ], [ 123.888713184769117, -17.221714180463927 ], [ 123.796458155634951, -17.003993211177288 ], [ 123.958817040677545, -16.844432206387491 ], [ 123.797299113258475, -16.912174210556334 ], [ 123.711538134968563, -16.752704191535521 ], [ 123.503620126401159, -16.659722235968399 ], [ 123.613021206796802, -16.570129212706082 ], [ 123.46011125581343, -16.529781236199188 ], [ 123.496591103005727, -16.514521195193993 ], [ 123.473471203337681, -16.469991255476419 ], [ 123.643032263775837, -16.530026211717995 ], [ 123.582612036953208, -16.499448172982667 ], [ 123.660533321459312, -16.484956171001286 ], [ 123.504421109953654, -16.4189511743757 ], [ 123.697221987252433, -16.414837179662051 ], [ 123.647951299708225, -16.38537918065138 ], [ 123.716801314868491, -16.371588228911097 ], [ 123.611849039484298, -16.286390250875662 ], [ 123.565720082865582, -16.301480202098983 ], [ 123.599369318520459, -16.218460230733491 ], [ 123.565699239640736, -16.17849124129339 ], [ 123.770568036284089, -16.170579246314666 ], [ 123.740660300559725, -16.263259177632175 ], [ 123.879100083829755, -16.35258922497761 ], [ 123.845000186895689, -16.386590225992244 ], [ 123.899999184166958, -16.421239224947715 ], [ 123.892818972470479, -16.333699204536394 ], [ 123.975019198228722, -16.3786991929523 ], [ 123.93701794707745, -16.230819202842564 ], [ 124.1251471161425, -16.281218218947615 ], [ 124.223687042881167, -16.41538724768364 ], [ 124.32213621654796, -16.419637225603783 ], [ 124.32139712770757, -16.468457195943465 ], [ 124.373405973718448, -16.442727174675941 ], [ 124.410307043550915, -16.543237184572749 ], [ 124.467426098731536, -16.495487153073842 ], [ 124.388806052092889, -16.415207164170528 ], [ 124.340606025451009, -16.424477165245104 ], [ 124.387496000615826, -16.345606203735233 ], [ 124.451435637871583, -16.409296572829877 ], [ 124.750904467931534, -16.390484866715262 ], [ 124.838652653071321, -16.432716105316544 ], [ 124.921263677349373, -16.416674233656448 ], [ 124.943954085216888, -16.383942943015409 ], [ 124.815993564207332, -16.415835335634458 ], [ 124.694554380647176, -16.344934957508215 ], [ 124.395956109930012, -16.339536553517981 ], [ 124.444355140707728, -16.065375170685193 ], [ 124.518845248438168, -16.178805149911256 ], [ 124.589045252523064, -16.113344168053683 ], [ 124.581146250557069, -15.998553777444968 ], [ 124.641734496657349, -15.995753226214275 ], [ 124.598454188796282, -15.967593146889971 ], [ 124.656084062755284, -15.854373144982146 ], [ 124.681583951882743, -15.888902164709522 ], [ 124.736764026834905, -15.812982223118556 ], [ 124.681154089115751, -15.756132203827276 ], [ 124.632334172650133, -15.779393134951679 ], [ 124.49919499573781, -15.9979342191053 ], [ 124.460365053995403, -15.807454168631949 ], [ 124.413445148498297, -15.877934150077383 ], [ 124.39242512649551, -15.729374209525455 ], [ 124.456055130837726, -15.652184177682997 ], [ 124.419894220763041, -15.548293217740172 ], [ 124.467563947558176, -15.535473176663716 ], [ 124.452033927609861, -15.494713166712508 ], [ 124.595833039442667, -15.523392193965584 ], [ 124.679553193639592, -15.491062222078291 ], [ 124.706612237475241, -15.275071200091034 ], [ 124.770232144200932, -15.301601149026668 ], [ 124.736132237115186, -15.343151169970703 ], [ 124.786152053075284, -15.293431208663245 ], [ 125.004242202842747, -15.441030225548316 ], [ 125.017112214078168, -15.544651186013045 ], [ 125.088661478133957, -15.463200364162731 ], [ 125.314306957338104, -15.625890481315199 ], [ 125.070041188826337, -15.440230204343234 ], [ 125.090859985929455, -15.354970143389778 ], [ 125.160729851130327, -15.324220201933212 ], [ 125.116089873780567, -15.322110142713882 ], [ 125.108259893119239, -15.262610172450614 ], [ 125.091799934904884, -15.304360173029728 ], [ 125.031461058264085, -15.290340154029488 ], [ 124.920091126275551, -15.356451186538404 ], [ 124.879261027471316, -15.293191176880194 ], [ 124.965081020723247, -15.212600134725948 ], [ 125.005650848870815, -15.241920154174696 ], [ 125.048850164666874, -15.15821015281664 ], [ 124.970150179468973, -15.164240154304409 ], [ 124.877641006935164, -15.261671206697914 ], [ 124.896381164045181, -15.17343016574708 ], [ 124.837720957737346, -15.183141166927157 ], [ 124.893091133057368, -15.114300145409246 ], [ 124.985059957974229, -15.133270173818433 ], [ 125.047710013168327, -15.077100182287205 ], [ 125.028929192495994, -14.985160132006543 ], [ 125.077778999464883, -14.976669191058972 ], [ 125.072379011475036, -15.064890161755914 ], [ 125.125679187920412, -15.043489140650548 ], [ 125.163249147730298, -15.15134919071444 ], [ 125.289729009289417, -15.100879168163694 ], [ 125.282309040508324, -15.143609188582344 ], [ 125.338879107451262, -15.160579127731433 ], [ 125.481337938873438, -15.154788185319266 ], [ 125.397097953474912, -15.131688136554077 ], [ 125.37548787335119, -15.052698206377286 ], [ 125.471747166625406, -14.992518074367007 ], [ 125.385948002375812, -15.032538206063984 ], [ 125.318757965852939, -15.005859157018847 ], [ 125.222878100015592, -14.926109148131996 ], [ 125.291368076225027, -14.937768197023654 ], [ 125.333987042716103, -14.881298155909297 ], [ 125.1854881205265, -14.836429198178308 ], [ 125.154788080462822, -14.738299148054347 ], [ 125.30330711039656, -14.654768144886527 ], [ 125.248457182891485, -14.619788125596324 ], [ 125.305045938589714, -14.5604981942123 ], [ 125.400096013411215, -14.572797142683097 ], [ 125.429955862919329, -14.641478212654828 ], [ 125.488614937456049, -14.519220140848255 ], [ 125.56061494330757, -14.514785119648819 ], [ 125.546493964700758, -14.549745180116396 ], [ 125.599335091920111, -14.562626159358235 ], [ 125.592150936971493, -14.243732127279365 ], [ 125.629220844751856, -14.23356211662003 ], [ 125.725782941176163, -14.342361135863349 ], [ 125.671232854029796, -14.330913136630263 ], [ 125.652462806130984, -14.394801167364255 ], [ 125.688515025725238, -14.493412197480314 ], [ 125.651104900426589, -14.650042149141608 ], [ 125.706724904631727, -14.489382177170471 ], [ 125.851503935953303, -14.456786154753599 ], [ 125.81750407849961, -14.496916145537247 ], [ 125.856843088095886, -14.613446165756008 ], [ 125.936313104067935, -14.646316154821557 ], [ 125.904223034634697, -14.563956174718374 ], [ 126.051302115769772, -14.528786152375822 ], [ 126.019613105819261, -14.411366112007098 ], [ 126.06934099231357, -14.362265170970399 ], [ 126.057459921412104, -14.255655130396349 ], [ 126.160197774600888, -14.176474128434247 ], [ 126.101195966373609, -14.074836128533653 ], [ 125.993086872169101, -14.068197110004164 ], [ 125.980786041913603, -14.006567169752346 ], [ 126.096653835515525, -13.99856617806614 ], [ 126.052114997112369, -13.943037168300224 ], [ 126.159173941698455, -13.968316176999821 ], [ 126.11726384468831, -14.018656157921901 ], [ 126.220423969073977, -14.01748416652023 ], [ 126.149534953633378, -14.067496177820834 ], [ 126.212595050291455, -14.074224127019557 ], [ 126.216008932370826, -14.236554148104117 ], [ 126.35709581391464, -14.186883145927283 ], [ 126.297577016536465, -14.138823166354291 ], [ 126.334334843330481, -14.050022125262087 ], [ 126.53700075086239, -13.934432161949534 ], [ 126.454273877148793, -14.076612173945337 ], [ 126.6053640508174, -14.232861173236188 ], [ 126.651552026352533, -14.072980141584253 ], [ 126.717972023299041, -14.121380161175631 ], [ 126.755151940024632, -14.01354913000746 ], [ 126.693990933184267, -14.000333140593742 ], [ 126.905199741550177, -13.981988168187623 ], [ 126.804879976361065, -13.927749128863505 ], [ 126.743101938112716, -13.791745138580207 ], [ 126.819776893782105, -13.769313147587724 ], [ 126.82681982385192, -13.808978187791828 ], [ 126.872688861257231, -13.795208097209214 ], [ 126.849138042128942, -13.760808127214901 ], [ 126.957517856176793, -13.741678155957141 ], [ 127.14242892873061, -13.982117125861029 ], [ 127.159258967334281, -13.931786155348926 ], [ 127.191408745869353, -13.959586165251293 ], [ 127.263728051434569, -13.901466134193258 ], [ 127.314427939238428, -13.959916114168415 ], [ 127.347406816989533, -13.906565183509812 ], [ 127.466676951404253, -14.005175123237999 ], [ 127.449128042762254, -14.054045123724512 ], [ 127.670196851761304, -14.191553143050829 ], [ 127.962715908083396, -14.59036214404429 ], [ 128.033654814020053, -14.583581483604057 ], [ 128.221935674009785, -14.722134143663299 ], [ 128.107875451740739, -14.946898625816026 ], [ 128.060940066431726, -15.30173097858631 ], [ 128.08936871520055, -15.390291509072044 ], [ 128.048678948169993, -15.48274196993852 ], [ 128.118678573562221, -15.415561899106308 ], [ 128.126907821862261, -15.183779857413196 ], [ 128.281616973392602, -15.345900777866337 ], [ 128.298227542881023, -15.457021028591015 ], [ 128.300766332125477, -15.319710047599266 ], [ 128.194255797434323, -15.096889126472222 ], [ 128.23015511485977, -15.00065840562088 ], [ 128.322274389163937, -14.931467404731396 ], [ 128.362814137359265, -15.066618525538651 ], [ 128.354844217082359, -14.887387084284573 ], [ 128.418923433605585, -14.950307984492511 ], [ 128.403673804207216, -14.87725718402441 ], [ 128.4738928604215, -14.956688094343718 ], [ 128.379924345337486, -14.81626649367645 ], [ 128.550463725333714, -14.767918112735831 ], [ 129.001493399545296, -14.879594592583096 ], [ 129.001927543863019, -31.686990625022766 ], [ 128.280608068623224, -31.990744107484591 ], [ 127.213380386828916, -32.276373534186128 ], [ 126.672797686900836, -32.308356798780459 ], [ 126.203148465001078, -32.23226300320389 ], [ 125.951019383087868, -32.290528636522311 ], [ 125.556938585987567, -32.535997513095985 ], [ 125.026195089388224, -32.728845302210978 ], [ 124.748639645178585, -32.898590057816527 ], [ 124.354423136345346, -32.960055245367748 ], [ 124.213655539861634, -33.03977729852938 ], [ 124.123407476265925, -33.135089540832233 ], [ 123.980199550271877, -33.549692545927051 ], [ 123.756943360194896, -33.723055401549949 ], [ 123.758613202275285, -33.798596601903469 ], [ 123.546765079797069, -33.934978527276044 ], [ 123.412305199554751, -33.893818940129805 ], [ 123.163077542905654, -34.016621206636039 ], [ 123.139247132959781, -33.91060007667496 ], [ 123.016767390296067, -33.857820409408291 ], [ 122.829398651541368, -33.909961714386029 ], [ 122.613429534803103, -33.894072519924926 ], [ 122.574640002934743, -33.947652961223554 ], [ 122.359200795451471, -33.914733676896553 ], [ 122.193931775505334, -34.016665482014467 ], [ 122.136752534088359, -34.006585403586641 ], [ 122.017731665705668, -33.836454986166032 ], [ 121.785964034998599, -33.908225353358574 ], [ 121.361492057206931, -33.815428036018801 ], [ 121.179407968044856, -33.867824522134825 ], [ 120.601491989173468, -33.885872121751902 ], [ 120.437290129204882, -33.971439977966632 ], [ 120.044070028163361, -33.92311932210459 ], [ 119.850978600883948, -33.969819819618735 ], [ 119.598404129664232, -34.133768020160183 ], [ 119.503732203410436, -34.288001004606222 ], [ 119.515738738543106, -34.410312444694711 ], [ 119.441945127731088, -34.366457657422878 ], [ 119.382926904026604, -34.485115290326874 ], [ 119.271629700677053, -34.466718854731752 ], [ 119.251824987748151, -34.5327727558373 ], [ 118.984491905429564, -34.450990576483193 ], [ 118.806274887574531, -34.51237726427312 ], [ 118.73954805206121, -34.574039637397227 ], [ 118.754821252547131, -34.620848056954216 ], [ 118.453024489148461, -34.750106450615732 ], [ 118.395791124427788, -34.843738683554186 ], [ 118.427757962842122, -34.898730992386021 ], [ 118.174527616555807, -34.940980913866341 ], [ 118.205872936022416, -35.009286442752959 ], [ 117.971958494350687, -35.015272053418045 ], [ 117.966796910630833, -34.948170303363426 ], [ 117.908673676230109, -35.039003506438831 ], [ 117.859696743341374, -35.026863498655764 ], [ 117.958179642038971, -35.095407264399803 ], [ 117.932145987981173, -35.120431715707738 ], [ 117.676723694223597, -35.044423257299528 ], [ 117.638300886791654, -35.134828969505136 ], [ 117.361847143468367, -35.019478462265795 ], [ 117.479816592810991, -34.997481866475326 ], [ 117.463336803568623, -34.970615597152353 ], [ 117.371836568204529, -34.968549001563368 ], [ 117.333562499571954, -35.040701023730747 ], [ 117.149118760900848, -35.060728552859786 ], [ 116.956370869073254, -35.019738092289757 ], [ 116.924573757485732, -35.063693844074372 ], [ 116.776460867808865, -35.01523654137538 ], [ 116.629868453850861, -35.046287099023857 ], [ 116.489885864157003, -35.016241866161657 ], [ 116.272295198971264, -34.884852097069796 ], [ 116.027538894433363, -34.837180609996011 ], [ 115.669420452706575, -34.481270538189065 ], [ 115.337104191253346, -34.314833906238448 ], [ 115.168183788211223, -34.321170255964631 ], [ 115.201955009283637, -34.277622493838066 ], [ 115.156603146105098, -34.274507816443766 ], [ 115.164364872185487, -34.361375636349059 ], [ 115.04330084350309, -34.271081623008804 ], [ 114.983054869866294, -33.88054899493595 ], [ 115.008094966632186, -33.529788622024107 ], [ 115.123138286976157, -33.623785985706668 ], [ 115.341425305443494, -33.644727303220826 ], [ 115.453346143185541, -33.580632436582917 ], [ 115.670237848118845, -33.302848263209768 ], [ 115.688775850943259, -33.120553461398721 ], [ 115.606933188776111, -32.684377674107793 ], [ 115.631957798575939, -32.601094632344335 ], [ 115.701757761873608, -32.517828618080209 ], [ 115.645169117194882, -32.608184441634585 ], [ 115.712845600138692, -32.773246028566561 ], [ 115.666364044676897, -32.615715270480919 ], [ 115.773191428976958, -32.615232394528562 ], [ 115.719154460699343, -32.535430877186684 ], [ 115.742284851232967, -32.327454114994254 ], [ 115.702853503758959, -32.286237407011939 ], [ 115.77493430526917, -32.181375532540933 ], [ 115.748815600011383, -32.063950633477909 ], [ 115.793374969812092, -32.014148040783304 ], [ 115.900742405475071, -32.027837484912013 ], [ 115.853055269315803, -31.988494777367091 ], [ 115.915805327471759, -31.950598373742434 ], [ 115.973800824898717, -31.893622920308985 ], [ 115.741108219296962, -32.040244443802891 ], [ 115.723075919125719, -31.743301843500152 ], [ 115.057322705033187, -30.503776646128959 ], [ 115.037111758133292, -30.253183616199181 ], [ 114.96338880374995, -30.072253659740571 ], [ 114.996104584045241, -29.487696225169731 ], [ 114.872007341183291, -29.116542310855429 ], [ 114.663851651003725, -28.90577367241567 ], [ 114.606526419234257, -28.791661975377568 ], [ 114.60199062676044, -28.625169674895488 ], [ 114.490895576455046, -28.44646271087155 ], [ 114.169633607624093, -28.093216699201616 ], [ 114.105103605926431, -27.849478702151245 ], [ 114.163396937641195, -27.706967317830824 ], [ 113.96519747298909, -27.229944578185773 ], [ 113.584367671770551, -26.671412730207766 ], [ 113.296203501951794, -26.399161777981043 ], [ 113.177851707041839, -26.17980073489478 ], [ 113.261401578793496, -26.191779719354983 ], [ 113.297778450800408, -26.020907706144715 ], [ 113.324342552240026, -26.318980775741849 ], [ 113.380423702515259, -26.398760722383706 ], [ 113.344902487924813, -26.294179734261817 ], [ 113.386930678136366, -26.10851774062137 ], [ 113.505222735603923, -26.362099753977805 ], [ 113.47596372797706, -26.474230746417724 ], [ 113.536471435826556, -26.284246701566829 ], [ 113.558995566925418, -26.576240711431883 ], [ 113.630563549757667, -26.463258756235057 ], [ 113.65909860304923, -26.668142765318319 ], [ 113.88522464429947, -26.502466699942659 ], [ 113.883571511703039, -26.340995719298967 ], [ 113.57355070577583, -26.086265758221685 ], [ 113.559118666129919, -25.946384708520018 ], [ 113.461066525806643, -25.809343684337048 ], [ 113.47926561018275, -25.764032742926315 ], [ 113.414485414036605, -25.724723707024953 ], [ 113.511092455841762, -25.50328968961681 ], [ 113.525243322678449, -25.607780759172236 ], [ 113.58516460783315, -25.627980725332471 ], [ 113.597845622140639, -25.699181714833774 ], [ 113.761867348562774, -25.878581754991025 ], [ 113.699934418557817, -26.044948739783678 ], [ 113.725310508466805, -26.204485708876742 ], [ 113.789990581528301, -26.207394684703626 ], [ 113.88003847079203, -26.071032708267818 ], [ 113.865637393110461, -25.953351678643489 ], [ 113.905557399202266, -25.959311656107232 ], [ 113.975272491966081, -26.347333683459972 ], [ 114.08957249859175, -26.467603656756271 ], [ 114.217281406200996, -26.363762728217406 ], [ 114.237990367716208, -26.283891696542401 ], [ 114.19118933399173, -26.168319718939046 ], [ 114.241349528241216, -26.165849665775919 ], [ 114.23928855129779, -26.072688675465798 ], [ 114.194667629480051, -25.985248657857252 ], [ 114.256927462974005, -25.989647673967237 ], [ 114.231605396942172, -25.874866695012969 ], [ 114.041016381120713, -25.66017171604609 ], [ 113.811007307219853, -25.165202688459658 ], [ 113.697716383004035, -25.086582745440193 ], [ 113.632733487081026, -24.797430748316938 ] ] ], [ [ [ 115.375000860104649, -20.894797360679359 ], [ 115.308011062647608, -20.847327564375057 ], [ 115.435619129778743, -20.665644705924858 ], [ 115.469819894411501, -20.779615594525168 ], [ 115.375000860104649, -20.894797360679359 ] ] ], [ [ [ 124.629122964642889, -15.39341221242465 ], [ 124.524643042168719, -15.448373234906409 ], [ 124.59105292642721, -15.369012223025257 ], [ 124.527282900079214, -15.359553144256592 ], [ 124.513123051830362, -15.400659174822229 ], [ 124.492856100781466, -15.296506154540031 ], [ 124.536566237708527, -15.276036203506306 ], [ 124.629122964642889, -15.39341221242465 ] ] ], [ [ [ 125.096127140178552, -14.54619917779841 ], [ 125.153156886572177, -14.526408176639109 ], [ 125.118056187943509, -14.493909167046432 ], [ 125.165715874242252, -14.440030135825969 ], [ 125.21501715437617, -14.596958186025375 ], [ 125.102557091527473, -14.636229148295495 ], [ 125.096127140178552, -14.54619917779841 ] ] ] ] } },
{ "type": "Feature", "properties": { "id": "6", "state_code": "6", "state": "Tasmania" }, "geometry": { "type": "MultiPolygon", "coordinates": [ [ [ [ 143.900802887133381, -40.139287790989023 ], [ 143.835282905197801, -39.902247785426333 ], [ 143.849268443111157, -39.710802685203717 ], [ 143.949768018425402, -39.579247720871599 ], [ 144.108974958996583, -39.669151461682851 ], [ 144.138227914592562, -39.933806255129319 ], [ 144.094427879896529, -40.051998792970004 ], [ 143.900802887133381, -40.139287790989023 ] ] ], [ [ [ 145.067056587847304, -40.715559851849775 ], [ 144.892788638771492, -40.738983860039852 ], [ 144.871835649929409, -40.678585858266906 ], [ 144.928771625467903, -40.623115841832771 ], [ 145.067056587847304, -40.715559851849775 ] ] ], [ [ [ 145.871307564112158, -43.321925082968832 ], [ 145.5911002694167, -42.974948001037376 ], [ 145.494918087355444, -42.991536844304846 ], [ 145.367521397013348, -42.659788283550036 ], [ 145.235876938304017, -42.471251803326503 ], [ 145.191417460279069, -42.211152098818864 ], [ 145.458094887312512, -42.434755418706096 ], [ 145.525660565015301, -42.422635073416437 ], [ 145.542523498431962, -42.3693665243214 ], [ 145.364831989799569, -42.251663521146618 ], [ 145.347705903773431, -42.169025499493493 ], [ 145.283118294803387, -42.185717285066218 ], [ 145.289857058200596, -42.227107555763219 ], [ 145.223691633238815, -42.214819781082717 ], [ 145.251742297017216, -42.059873832187321 ], [ 145.187683394797773, -41.941316867078662 ], [ 144.924765771503388, -41.666191087444275 ], [ 145.006099521148457, -41.617681612747177 ], [ 145.066808124916804, -41.651235727110723 ], [ 145.101360548661489, -41.645935579465323 ], [ 145.046734634502428, -41.605667825474455 ], [ 145.005800511365436, -41.616391862719475 ], [ 144.981587614950854, -41.626657901114868 ], [ 144.917449493473157, -41.662031856921246 ], [ 144.789688594456692, -41.450599877049591 ], [ 144.659999606642884, -41.057644826087099 ], [ 144.801105698235204, -41.064006855651975 ], [ 144.659824627190716, -41.053268836050606 ], [ 144.628393657564772, -40.931688833251407 ], [ 144.711999672684755, -40.834023838321578 ], [ 144.684542638808153, -40.741489835944328 ], [ 144.726245642379752, -40.641472848184343 ], [ 144.766046762768696, -40.743615841457682 ], [ 144.990947378342867, -40.751091836821324 ], [ 145.091429767369732, -40.847618664284411 ], [ 145.165756236155005, -40.820905799271635 ], [ 145.109392700072419, -40.795907045229441 ], [ 145.435086245439749, -40.89092633848427 ], [ 145.505455066627519, -40.851483273223167 ], [ 145.835978566928503, -41.056911867982528 ], [ 146.120065703345034, -41.121834548982399 ], [ 146.125372256794094, -41.164890169615752 ], [ 146.35345899314396, -41.158421216385378 ], [ 146.352678247833296, -41.200477696566743 ], [ 146.387727586141693, -41.237710079379589 ], [ 146.411214060509167, -41.169028980734922 ], [ 146.544484410066417, -41.12693843044385 ], [ 146.565102370615335, -41.244437832658591 ], [ 146.605069931004181, -41.25814352573763 ], [ 146.602000254681741, -41.158903974941992 ], [ 146.715031255224176, -41.064117972921167 ], [ 146.761536074324425, -41.078392946523422 ], [ 146.811599677346635, -41.133160820636348 ], [ 146.773460210556863, -41.164765417921011 ], [ 146.923344400738728, -41.169923009364503 ], [ 146.898295841648348, -41.199501417619452 ], [ 146.973744161882479, -41.311619264030519 ], [ 147.12123718512413, -41.443626396131641 ], [ 147.172656366054838, -41.436270510068148 ], [ 146.978766812639265, -41.298737214342367 ], [ 147.011604769633578, -41.273545896719277 ], [ 146.924465678154519, -41.187589099551083 ], [ 146.956385983001326, -41.179752801949057 ], [ 146.831723912912963, -41.137117652189261 ], [ 146.80350796741422, -41.069165619655578 ], [ 146.999442170907088, -40.983807004128138 ], [ 147.202677118329177, -41.008994989956172 ], [ 147.2804006124762, -40.941676045610635 ], [ 147.454065271402499, -40.99801529952299 ], [ 147.669082263650637, -40.827132165527523 ], [ 147.780267265118056, -40.879867304691999 ], [ 147.882922467135671, -40.868120482847651 ], [ 147.960577139333395, -40.746213238388883 ], [ 148.07958536349247, -40.769273388146516 ], [ 148.114449378213152, -40.830787961334067 ], [ 148.259778221986267, -40.891126043534094 ], [ 148.33985970199052, -40.994227470697403 ], [ 148.286502244533267, -41.047884456629582 ], [ 148.269340188066678, -41.185891516018891 ], [ 148.333322293461407, -41.27108974175507 ], [ 148.263105127013972, -41.340681986396127 ], [ 148.327308769520954, -41.306440671463854 ], [ 148.26706550858276, -41.46298707741871 ], [ 148.320300355184798, -41.621379282683762 ], [ 148.265827557290976, -41.817157199324591 ], [ 148.323594731200245, -41.917188574624362 ], [ 148.283758876343938, -42.003773451842136 ], [ 148.344250266700669, -42.122910887473644 ], [ 148.299192839939792, -42.161683033990052 ], [ 148.355719243954866, -42.193313838809317 ], [ 148.291593893773978, -42.280828734029697 ], [ 148.261507823733865, -42.254371121417577 ], [ 148.29443981638326, -42.124573033393261 ], [ 148.172466712611538, -42.043562082968265 ], [ 148.244204346311022, -41.989393418522866 ], [ 148.166531600736903, -41.996176582219348 ], [ 148.116448049629952, -42.071767698565885 ], [ 148.211369668792486, -42.084900706373475 ], [ 148.088992820884812, -42.100580096496415 ], [ 148.065917442021657, -42.192548955136516 ], [ 147.930966876908627, -42.344159095070466 ], [ 148.026893886805595, -42.349494552845655 ], [ 147.980507757944139, -42.405338319404173 ], [ 148.011036916413786, -42.509536072445741 ], [ 147.932893746246634, -42.550270976361766 ], [ 147.909109777186501, -42.508718084218316 ], [ 147.95730051587671, -42.654576288901353 ], [ 147.827182639044253, -42.880438619670052 ], [ 147.668585498585543, -42.901331787122082 ], [ 147.606888145927485, -42.869705462052416 ], [ 147.603333277138006, -42.798080741381639 ], [ 147.434132375146646, -42.775527257907633 ], [ 147.488989596152521, -42.82876197251295 ], [ 147.576715578701283, -42.824790919418795 ], [ 147.50299193773975, -42.866763283822777 ], [ 147.554083619823075, -42.985630798499905 ], [ 147.472816171118779, -43.023296092291702 ], [ 147.479930686667188, -42.906726502222064 ], [ 147.415024645462069, -42.938316057289676 ], [ 147.262601616878499, -42.730185014243659 ], [ 147.198995890627259, -42.725306429271981 ], [ 147.150011516907654, -42.751787165618659 ], [ 147.198690348535507, -42.740391569330285 ], [ 147.322116780001721, -42.832076179439085 ], [ 147.360531037688133, -42.93162181298198 ], [ 147.315895260550803, -42.975544199729313 ], [ 147.337673376415353, -43.041877111788686 ], [ 147.269107043488589, -43.022187796331139 ], [ 147.260060815387618, -43.228707776734964 ], [ 147.167123176915595, -43.283102449804886 ], [ 147.080328882051646, -43.165589942464969 ], [ 147.059571038516168, -43.220233481156576 ], [ 146.984429818675153, -43.189256445211186 ], [ 147.030283537944484, -43.057823608030915 ], [ 146.964158092763483, -43.190288593661329 ], [ 147.089439044503337, -43.274010543747494 ], [ 146.971788501276848, -43.328787734985298 ], [ 147.059013479528886, -43.352518841818878 ], [ 146.939378640674278, -43.449686863142723 ], [ 146.99663552674798, -43.462452217602468 ], [ 146.939426166107836, -43.481245993313443 ], [ 146.95437589570335, -43.531331714723798 ], [ 146.901025249245095, -43.51573615055748 ], [ 146.873916214570158, -43.587878718867394 ], [ 146.920970032830127, -43.600029222527674 ], [ 146.844811734225118, -43.633038696885208 ], [ 146.724600840118939, -43.630680467739843 ], [ 146.549801119790772, -43.47216061372896 ], [ 146.542354204133773, -43.523277173440093 ], [ 146.460721928690845, -43.542832317434872 ], [ 146.287809785265893, -43.543947884591375 ], [ 146.213529429155216, -43.485719848802276 ], [ 146.211663983134969, -43.531868308907754 ], [ 146.142625411736759, -43.503539693683571 ], [ 146.03722799756062, -43.551234276223497 ], [ 145.993059296940345, -43.405666892239644 ], [ 145.921497715429069, -43.381270306914395 ], [ 146.00319065309904, -43.344965252656465 ], [ 146.156552764194345, -43.392092424118218 ], [ 146.227767434157784, -43.355811409165511 ], [ 146.169174695383361, -43.291611074513497 ], [ 146.136412704860533, -43.345610632394546 ], [ 146.069811533876646, -43.309537437328032 ], [ 146.026600979012159, -43.338671274328568 ], [ 145.953421202322687, -43.281052838700091 ], [ 145.940458832771583, -43.150426257066023 ], [ 145.926066975342735, -43.301303836822989 ], [ 145.871307564112158, -43.321925082968832 ] ] ], [ [ [ 147.202863109748932, -43.418086483296179 ], [ 147.137414312581853, -43.493105878620156 ], [ 147.115713649077207, -43.411301326507861 ], [ 147.161518941617402, -43.464894350337396 ], [ 147.178456453995409, -43.355600231069886 ], [ 147.211930193020521, -43.382643013812086 ], [ 147.288674586950407, -43.245571619055234 ], [ 147.306866795655651, -43.296820040748571 ], [ 147.35871818131065, -43.252432684564909 ], [ 147.38463413603202, -43.18326349622459 ], [ 147.283657092828349, -43.143766058118743 ], [ 147.357060819243372, -43.063533123421884 ], [ 147.417625880657454, -43.241183799122894 ], [ 147.320389710798509, -43.310653971878502 ], [ 147.327212191959887, -43.497091443403008 ], [ 147.246313059703567, -43.492440577068592 ], [ 147.202863109748932, -43.418086483296179 ] ] ], [ [ [ 147.895209899037212, -43.188400376795677 ], [ 147.887354960334335, -43.123968095817347 ], [ 147.797427724982299, -43.217650069106945 ], [ 147.689489739280532, -43.138062060063412 ], [ 147.732177077341078, -43.091486563214481 ], [ 147.622794263865046, -43.06542319437203 ], [ 147.627538652790776, -42.998221724385907 ], [ 147.729839735684976, -42.970984462377494 ], [ 147.707588134987304, -43.006763200797032 ], [ 147.74938376092291, -43.043366084328269 ], [ 147.864344715561202, -43.054020093591234 ], [ 147.865844121210017, -42.946965863132675 ], [ 147.802885802134568, -42.893299027793596 ], [ 147.891710621419378, -42.842512534644285 ], [ 147.998763188717675, -42.914410513666084 ], [ 147.927273928510772, -43.014211668437646 ], [ 147.954346684557663, -43.136565541280362 ], [ 148.005824703506249, -43.139106655452053 ], [ 147.963653955295797, -43.185255422293352 ], [ 148.001494871027916, -43.227687615578319 ], [ 147.895209899037212, -43.188400376795677 ] ] ], [ [ [ 148.113693396282002, -40.272677688004677 ], [ 148.046114792091032, -40.249493422387872 ], [ 148.006268899432683, -40.10449778830742 ], [ 147.871311137493109, -40.008785026873028 ], [ 147.901474410072041, -39.948685108937759 ], [ 147.860240964585529, -39.897681185323755 ], [ 147.748285158346391, -39.874486446232467 ], [ 147.941843983663972, -39.719533050816253 ], [ 148.188255077292382, -39.947835832144499 ], [ 148.29116293593259, -39.96521136065796 ], [ 148.286261962606346, -40.067910110867892 ], [ 148.231634604483673, -40.127313466751922 ], [ 148.283202596852334, -40.113428720887725 ], [ 148.33388844405988, -40.209521495613942 ], [ 148.210287676881649, -40.210681845502847 ], [ 148.113693396282002, -40.272677688004677 ] ] ], [ [ [ 148.067401545936008, -42.570644487346854 ], [ 148.16757091418549, -42.647161715911409 ], [ 148.083193549307765, -42.660861119123062 ], [ 148.093467088355396, -42.720237370282099 ], [ 148.014012141451815, -42.741171353956112 ], [ 148.065868831515616, -42.669719397765874 ], [ 148.028085685346923, -42.628416764478153 ], [ 148.067401545936008, -42.570644487346854 ] ] ], [ [ [ 148.345801672207529, -40.491919708257782 ], [ 148.315685176371119, -40.431423185429551 ], [ 148.04608001454605, -40.448710123558151 ], [ 147.986704064051338, -40.388294258403278 ], [ 148.331009061960231, -40.299864395911776 ], [ 148.472093005459925, -40.442823218377654 ], [ 148.345801672207529, -40.491919708257782 ] ] ] ] } },
{ "type": "Feature", "properties": { "id": "7", "state_code": "7", "state": "Northern Territory" }, "geometry": { "type": "MultiPolygon", "coordinates": [ [ [ [ 129.000579056375358, -25.998591879552773 ], [ 129.001493399545296, -14.879594592583096 ], [ 129.188458328746606, -14.986479263221277 ], [ 129.200568038076511, -15.121235514196028 ], [ 129.158199210613844, -15.197587644764383 ], [ 129.26641742419045, -15.033018953547574 ], [ 129.225286636568171, -14.840588752151842 ], [ 129.474936512058605, -14.936615802942809 ], [ 129.603911554287606, -15.107992584348459 ], [ 129.563592416563921, -15.179902424816538 ], [ 129.685671479423434, -15.131012694653 ], [ 129.61943029363411, -14.948602973207516 ], [ 129.506065680388815, -14.80830514203649 ], [ 129.592125855310087, -14.89099517274607 ], [ 129.579874706153078, -14.79829516205138 ], [ 129.63205966307487, -14.843853382461191 ], [ 129.800569603312908, -14.858113602894045 ], [ 129.903233917616546, -14.777393992561507 ], [ 129.757839455857749, -14.824383702551865 ], [ 129.672409460894357, -14.7634540019399 ], [ 129.585143656115775, -14.613815140708731 ], [ 129.69238879003899, -14.612774740871346 ], [ 129.776235745462202, -14.536822120481405 ], [ 129.66934875140322, -14.580474910593788 ], [ 129.526279679523952, -14.55227612018626 ], [ 129.356774159135568, -14.423616369123733 ], [ 129.366663578617164, -14.33966630851392 ], [ 129.472581972886161, -14.175965727379461 ], [ 129.483281142418264, -14.045895666434959 ], [ 129.558800628270689, -14.095475096875635 ], [ 129.725944519364361, -14.009125656498744 ], [ 129.72257344986329, -13.847895885305043 ], [ 129.784685756695609, -13.787271124982302 ], [ 129.826120625168727, -13.510216453027871 ], [ 130.008378075684647, -13.533324633686759 ], [ 130.190823756810062, -13.394195123285458 ], [ 130.239296734809017, -13.281950132641716 ], [ 130.116184251464887, -13.164125291300412 ], [ 130.141122291080137, -12.93344410967207 ], [ 130.222591127024458, -12.949153760095593 ], [ 130.3387086816048, -12.889312750135286 ], [ 130.352037281973736, -12.670323498557735 ], [ 130.404116749333383, -12.701463489029518 ], [ 130.440054577949809, -12.63420227869751 ], [ 130.535893832954372, -12.713391869775958 ], [ 130.695260925273402, -12.719800400719469 ], [ 130.54567101292119, -12.634290269234457 ], [ 130.612029169953075, -12.601469119349689 ], [ 130.565869382337468, -12.566699228835271 ], [ 130.580968702210612, -12.4626285081356 ], [ 130.623248220317635, -12.447747938257699 ], [ 130.578969082628817, -12.404888917690986 ], [ 130.752956984375857, -12.428786938880792 ], [ 130.767637792843601, -12.559597929957036 ], [ 130.8414775093853, -12.555307720398863 ], [ 130.889268746474983, -12.648222731418805 ], [ 130.882297937101811, -12.6061881810547 ], [ 130.956177843499972, -12.619528011666869 ], [ 130.873867168046303, -12.528017300408537 ], [ 130.955877914141496, -12.534037201019563 ], [ 130.87032601852448, -12.483147290046444 ], [ 130.915506546591018, -12.457306450158507 ], [ 130.83331826041217, -12.460592029631499 ], [ 130.849298950239643, -12.376423119101769 ], [ 130.905215737940551, -12.334655829162067 ], [ 131.040185981527571, -12.357755510298698 ], [ 130.994635554917494, -12.186045438666726 ], [ 131.045304962943334, -12.142665218709022 ], [ 131.248186773066124, -12.222300060908497 ], [ 131.288994542743552, -12.046355069914521 ], [ 131.327853489607662, -12.202325301432477 ], [ 131.396183825923316, -12.264096692503639 ], [ 131.657369053735493, -12.285507535154009 ], [ 131.87123783471219, -12.216387076882132 ], [ 132.06972296460512, -12.303526059821532 ], [ 132.254271227871186, -12.171027121068313 ], [ 132.278471386073477, -12.224197511785345 ], [ 132.353172243017127, -12.198808702556205 ], [ 132.389401740857608, -12.236398853323273 ], [ 132.443971499639446, -12.145449283351603 ], [ 132.62896864215449, -12.086891135467443 ], [ 132.655331203897163, -11.889801514319485 ], [ 132.580459638669993, -11.787522142463724 ], [ 132.644850636745588, -11.727995132915481 ], [ 132.53858965148936, -11.717659131339028 ], [ 132.505752654050696, -11.636704120260115 ], [ 132.597899630035386, -11.641281141576492 ], [ 132.460891638439051, -11.459091138275554 ], [ 132.237885657866173, -11.455969125351194 ], [ 132.066103674277542, -11.523844123786743 ], [ 131.945865671665672, -11.326100120880804 ], [ 131.770100698996174, -11.32389811895492 ], [ 131.902713654934161, -11.196018109399452 ], [ 131.961703681853606, -11.253202130498474 ], [ 131.973116682824326, -11.129370119674386 ], [ 132.009523681325845, -11.130859110101591 ], [ 132.036134659528756, -11.1908351108713 ], [ 132.114488656063514, -11.211830121956998 ], [ 132.101167655237646, -11.324103122663638 ], [ 132.156373642966344, -11.322417123315041 ], [ 132.147798662546847, -11.384714123691397 ], [ 132.209306669604047, -11.413985114671185 ], [ 132.191071681154057, -11.351854123966554 ], [ 132.237382649376912, -11.340097134450421 ], [ 132.135512656301074, -11.122803121522473 ], [ 132.183411684284039, -11.128469122148083 ], [ 132.282272658360881, -11.274874124512275 ], [ 132.265731660321592, -11.176177123540146 ], [ 132.341979647755352, -11.1349091241952 ], [ 132.397978673242875, -11.300143126205818 ], [ 132.436491642864013, -11.211570126031456 ], [ 132.659482649334365, -11.510043131435108 ], [ 132.718152636644788, -11.524002122393124 ], [ 132.84972761312892, -11.392421133329295 ], [ 132.88293064115723, -11.429706134125512 ], [ 132.909189620747242, -11.386185134190244 ], [ 132.865061633306738, -11.340157133155543 ], [ 132.917215641272549, -11.332014143892204 ], [ 133.156885614924363, -11.710221140673472 ], [ 133.335350597528759, -11.693852133564304 ], [ 133.321342596759052, -11.771111153926366 ], [ 133.401115603995009, -11.732901145017022 ], [ 133.460395620155936, -11.802602146613069 ], [ 133.534353587721768, -11.7609871376191 ], [ 133.526328586010436, -11.871119138336324 ], [ 133.563391605571439, -11.808440138520519 ], [ 133.611181592829183, -11.843336159673649 ], [ 133.794467577179915, -11.725590152213003 ], [ 133.929354570547218, -11.765993155172671 ], [ 133.823231583626807, -11.84129415367971 ], [ 133.843037581978535, -11.880346154372445 ], [ 133.91592756796129, -11.920930156125848 ], [ 134.038896573941713, -11.855303168080344 ], [ 134.075822560613972, -11.936505159475482 ], [ 134.133210558819854, -11.902547160392723 ], [ 134.194261553389794, -12.02957317267186 ], [ 134.175325562093889, -12.128200173052123 ], [ 134.247285571957804, -11.98772515346352 ], [ 134.527281547739278, -12.068105160226734 ], [ 134.689007533085288, -11.962255183080346 ], [ 134.771434529560139, -11.958262174974035 ], [ 134.842037532630684, -12.113823187883963 ], [ 134.970575525771238, -12.158570171342431 ], [ 135.055842509296838, -12.262296184266514 ], [ 135.144510535921, -12.237972176287906 ], [ 135.21279352131441, -12.295983188479919 ], [ 135.161218515492152, -12.225533186609894 ], [ 135.266304530776949, -12.224913179281689 ], [ 135.222801493655595, -12.190008197889119 ], [ 135.369375529937315, -12.084211190827837 ], [ 135.469381504788032, -12.110213183670904 ], [ 135.519567513930639, -12.060525204611185 ], [ 135.569539510602453, -12.100640196276382 ], [ 135.814745483220719, -11.979738212052816 ], [ 135.65193650408898, -12.201693199326398 ], [ 135.722370478496998, -12.286810201947576 ], [ 136.044128480287839, -12.076097199375774 ], [ 135.928590471118667, -12.221137197217185 ], [ 135.965730487921348, -12.272712208695905 ], [ 136.061051474577511, -12.241056211197908 ], [ 135.96708846393426, -12.404795209797905 ], [ 136.01370448206319, -12.396178211072835 ], [ 136.016482449017161, -12.493561211937003 ], [ 136.06324847877562, -12.430216212785925 ], [ 136.232772460176847, -12.457435218009705 ], [ 136.304122448694017, -12.400204229690928 ], [ 136.363675450695723, -12.250410230285398 ], [ 136.172317452094291, -12.158853223801922 ], [ 136.414913457634839, -11.958369229485591 ], [ 136.473322475014953, -11.960679231300492 ], [ 136.450572454713239, -12.0014152109293 ], [ 136.497691471676347, -12.031875222631522 ], [ 136.532191461386986, -11.993736213393854 ], [ 136.667217466002683, -12.283034229985681 ], [ 136.764735452960053, -12.242616222773162 ], [ 136.683823428561311, -12.182491219697303 ], [ 136.782083434981303, -12.158596242648882 ], [ 136.874475438774795, -12.221005236152203 ], [ 136.961922419984518, -12.364100240186442 ], [ 136.773830442862248, -12.53333224542604 ], [ 136.779139445403331, -12.449909224920178 ], [ 136.722134436615477, -12.491982243430721 ], [ 136.762203441931064, -12.57733323540859 ], [ 136.703838443562972, -12.609657223799939 ], [ 136.699384420631276, -12.70448722442606 ], [ 136.628980454062628, -12.700478242157187 ], [ 136.585127412281679, -12.81806923172598 ], [ 136.584074423803884, -12.772949231328036 ], [ 136.530532437179659, -12.746740229439707 ], [ 136.519302445747314, -12.807391239579779 ], [ 136.484130428665509, -12.768478218172469 ], [ 136.482527446340697, -12.843071218725227 ], [ 136.635299435484853, -12.952426224395118 ], [ 136.583298425838592, -13.017936243283609 ], [ 136.492371421060312, -12.992231230234722 ], [ 136.567063415277204, -13.059152223106462 ], [ 136.475955434039321, -13.234391231678197 ], [ 136.401354437479199, -13.241808239437031 ], [ 136.342853437689826, -13.326146238327883 ], [ 136.328418420824761, -13.249803227274914 ], [ 136.387072428494406, -13.232073238920886 ], [ 136.333162447166586, -13.041911215745634 ], [ 136.293062447074476, -13.106667225052401 ], [ 136.316194434283744, -13.159380226176504 ], [ 136.223254449594492, -13.13504722318255 ], [ 136.237888426710441, -13.204524214179253 ], [ 136.158696428570408, -13.270478212348502 ], [ 136.142765453859511, -13.124350230703408 ], [ 136.043676463028589, -13.311224219294342 ], [ 136.003714438006824, -13.212161217338924 ], [ 135.960563447795039, -13.290118216717461 ], [ 135.918723460475576, -13.269885205354679 ], [ 135.879905459663775, -13.362128224985511 ], [ 135.965173543949362, -13.410465307813947 ], [ 135.931254163965264, -13.46680540728963 ], [ 135.862903938351167, -13.435156275086424 ], [ 135.839745415640834, -13.566345805478505 ], [ 135.921415978227628, -13.675064718672624 ], [ 135.877836259712979, -13.700385117630088 ], [ 135.914506456421378, -13.74722472905114 ], [ 136.054875121202087, -13.680633682579931 ], [ 136.016116358830487, -13.824043652596822 ], [ 135.917557819338526, -13.977913830979819 ], [ 135.880748545492025, -14.17131311146874 ], [ 135.619621642245079, -14.423093736164654 ], [ 135.537202522866181, -14.559763775001295 ], [ 135.539552430370918, -14.642533445720003 ], [ 135.382083916846341, -14.725723872162948 ], [ 135.470473214944576, -14.970212146446416 ], [ 136.239719966638518, -15.416074361904387 ], [ 136.338289264444001, -15.611384746451353 ], [ 136.555465886729024, -15.750384564308478 ], [ 136.644075184009125, -15.672432706502079 ], [ 136.72460497828709, -15.69768150928935 ], [ 136.655495549876377, -15.773433137671011 ], [ 136.729505679898352, -15.932383741316048 ], [ 136.824005155236222, -15.899672064129888 ], [ 136.937074706950852, -15.937970428163768 ], [ 136.913764599793268, -15.89809055707264 ], [ 136.977993837540879, -15.850939218832398 ], [ 137.250582635053064, -16.009826369364301 ], [ 137.308462798495526, -16.090075782014342 ], [ 137.729679226817893, -16.232237858205156 ], [ 137.9946539678389, -16.538296570524707 ], [ 137.99906130486545, -25.996849173538216 ], [ 129.000579056375358, -25.998591879552773 ] ] ], [ [ [ 130.261829720293008, -11.707412100963234 ], [ 130.229831741940757, -11.642451110350992 ], [ 130.192859733532373, -11.643909110223268 ], [ 130.199374763764098, -11.508743119233515 ], [ 130.151828735855048, -11.490490108926416 ], [ 130.263933731692106, -11.341869098226876 ], [ 130.340241728602365, -11.318314108363438 ], [ 130.468965721493078, -11.666717121573727 ], [ 130.640939623544483, -11.754542303138027 ], [ 130.605759724671145, -11.826991113488793 ], [ 130.311114727875548, -11.770986111641726 ], [ 130.049505769160334, -11.823989111088512 ], [ 130.085804758075085, -11.669180110044381 ], [ 130.156513764881964, -11.704927110549908 ], [ 130.201630023132822, -11.649310540296124 ], [ 130.261829720293008, -11.707412100963234 ] ] ], [ [ [ 131.187604443146398, -11.334888803670124 ], [ 131.25176371167143, -11.192690123105574 ], [ 131.382484695346022, -11.299013115028711 ], [ 131.410392704579294, -11.256189114948784 ], [ 131.54167968717644, -11.459189117709002 ], [ 131.461448680047084, -11.514028117379317 ], [ 131.472023668720823, -11.606619118183398 ], [ 131.380288702787254, -11.591992107244682 ], [ 131.28130669574719, -11.740056117520291 ], [ 130.949233718762514, -11.939919106482323 ], [ 130.500031750169143, -11.66276011169735 ], [ 130.372635727917299, -11.170881117394169 ], [ 130.603209727612608, -11.321688099663156 ], [ 130.557540739178108, -11.385072119898574 ], [ 130.663450704985507, -11.341262120145263 ], [ 130.6950827329145, -11.466431101273207 ], [ 130.766447719779961, -11.48423212183501 ], [ 130.704710702993367, -11.38572012071946 ], [ 130.895840725491325, -11.309814121344008 ], [ 131.032546719372306, -11.367234102734653 ], [ 131.148335445463061, -11.249861242714067 ], [ 131.187604443146398, -11.334888803670124 ] ] ], [ [ [ 132.57932664996639, -11.005264116381962 ], [ 132.619626624268761, -11.286827129134643 ], [ 132.593000644542315, -11.344086129203417 ], [ 132.469617662304358, -11.153955126029805 ], [ 132.57932664996639, -11.005264116381962 ] ] ], [ [ [ 136.293004428108048, -13.707990239882221 ], [ 136.248463366049947, -13.846171249646298 ], [ 136.175360412302894, -13.767704236830614 ], [ 136.167868420609437, -13.83456623714315 ], [ 136.10565942447468, -13.814241225139314 ], [ 136.122554846439982, -13.722253084901398 ], [ 136.161063433571655, -13.750685236269312 ], [ 136.183508414704249, -13.677129236347554 ], [ 136.293004428108048, -13.707990239882221 ] ] ], [ [ [ 135.73462250608523, -12.002370200001815 ], [ 135.564671511661771, -12.070365185902205 ], [ 135.592701503710543, -11.952680195715434 ], [ 135.733614487929032, -11.939375199467419 ], [ 135.907790485634223, -11.758320202896067 ], [ 135.938171513015249, -11.803138204123037 ], [ 135.73462250608523, -12.002370200001815 ] ] ], [ [ [ 136.589695188203706, -15.645303584555625 ], [ 136.494956484091972, -15.63969436152663 ], [ 136.525335915902218, -15.530932881614246 ], [ 136.609615061138356, -15.523141774215365 ], [ 136.589695188203706, -15.645303584555625 ] ] ], [ [ [ 136.682816377314509, -13.730592232186165 ], [ 136.808064406591143, -13.856441247234763 ], [ 136.840536778702813, -13.745174497394371 ], [ 136.905224844720294, -13.764113579666144 ], [ 136.924414542266987, -13.806513170640557 ], [ 136.762330374018603, -14.002698246931514 ], [ 136.80523736115461, -14.020430238464288 ], [ 136.698803363331166, -14.122692245853175 ], [ 136.722735389877727, -14.187255247140319 ], [ 136.800355377054473, -14.148280249335011 ], [ 136.863832371487206, -14.211733251916229 ], [ 136.963196357775075, -14.165502254819659 ], [ 136.947328384735926, -14.277161265193374 ], [ 136.903886375963424, -14.309289244017213 ], [ 136.740619366480814, -14.259295248295089 ], [ 136.648822380168781, -14.29677724565534 ], [ 136.437355994864873, -14.196286268213161 ], [ 136.324708639312774, -14.246097465155691 ], [ 136.442926627197522, -14.115316897736445 ], [ 136.422580447971228, -13.815629194703583 ], [ 136.493930423529974, -13.838279227095914 ], [ 136.541446702722112, -13.787618298172847 ], [ 136.554426320991723, -13.819827958838921 ], [ 136.631471398010291, -13.789238251024143 ], [ 136.590425393295504, -13.693455238954947 ], [ 136.675263398767697, -13.698698231688132 ], [ 136.692383399272956, -13.657316251901422 ], [ 136.731552386444463, -13.681886253355106 ], [ 136.682816377314509, -13.730592232186165 ] ] ], [ [ [ 136.709386489406285, -11.207712232578634 ], [ 136.493233490052148, -11.461417207862912 ], [ 136.498254472066208, -11.391521217450032 ], [ 136.686987460765749, -11.193622221751955 ], [ 136.75886848345931, -11.023707212656728 ], [ 136.709386489406285, -11.207712232578634 ] ] ], [ [ [ 137.07426302183768, -15.846247932029147 ], [ 136.934153475670001, -15.69686893614314 ], [ 136.959982996109829, -15.640548386551895 ], [ 136.988282823199825, -15.674558237767606 ], [ 136.992312466181318, -15.583997777178444 ], [ 137.081671978255969, -15.65575698075682 ], [ 137.106132332564101, -15.772517142519195 ], [ 137.07426302183768, -15.846247932029147 ] ] ] ] } },
{ "type": "Feature", "properties": { "id": "8", "state_code": "8", "state": "Australian Capital Territory" }, "geometry": { "type": "Polygon", "coordinates": [ [ [ 149.046386315308268, -35.920517208111733 ], [ 148.886684494508017, -35.81005085388005 ], [ 148.877719547963011, -35.714948682491723 ], [ 148.856088996467491, -35.753531680929626 ], [ 148.804152479591778, -35.714006166305417 ], [ 148.762795683484029, -35.495486121380189 ], [ 148.810140879663919, -35.307435124083753 ], [ 149.120953424969429, -35.12440293910884 ], [ 149.26270931633465, -35.258204012118725 ], [ 149.394790730335927, -35.30317587377435 ], [ 149.347527161559839, -35.350227660021467 ], [ 149.206466753809309, -35.345859747897222 ], [ 149.152421303889867, -35.410661943720541 ], [ 149.142687072185481, -35.592776354113205 ], [ 149.078153273026885, -35.58640404857983 ], [ 149.100605410357304, -35.814690632013161 ], [ 149.046386315308268, -35.920517208111733 ] ] ] } }
]
}
